[
  {
    "category": "Sanctuaries",
    "placeName": "!Ae!Hai Kalahari Heritage Park",
    "link": "https://darksky.org/places/aehai-kalahari-heritage-park-dark-sky-sanctuary/",
    "coords": "-27.4327193,20.3638621",
    "mapsLink": "https://goo.gl/maps/mkopz1TZ9sQHLsdp7",
    "address": "R360, Upington, 8800\nSouth Africa\nGoogle Maps"
  },
  {
    "category": "Parks",
    "placeName": "Aenos National Park",
    "link": "https://darksky.org/places/aenos-national-park-dark-sky-park/",
    "coords": "38.1406036,20.656048",
    "mapsLink": "https://goo.gl/maps/uR5kW55STVTgMzF19",
    "address": "Aenos National Park\n28100 Argostoli\nCephalonia, Greece\nGoogle Maps"
  },
  {
    "category": "Parks",
    "placeName": "Albanyà",
    "link": "https://darksky.org/places/albanya-dark-sky-park/",
    "coords": "42.3050773,2.7115363",
    "mapsLink": "https://goo.gl/maps/wH87JxRLGMDxFFC49",
    "address": "Girona, SpainGoogle Maps"
  },
  {
    "category": "Reserves",
    "placeName": "Alpes Azur Mercantour",
    "link": "https://darksky.org/places/alpes-azur-mercantour-dark-sky-reserve/",
    "coords": "44.1521572,6.9992229",
    "mapsLink": "https://goo.gl/maps/G8VrmukQpXabKdoCA",
    "address": "Beuil, France\nGoogle Maps"
  },
  {
    "category": "Parks",
    "placeName": "AMC Maine Woods",
    "link": "https://darksky.org/places/amc-maine-woods-dark-sky-park/",
    "coords": "45.4912817,-69.3946364",
    "mapsLink": "https://www.outdoors.org/amc-maine-woods-international-dark-sky-park/",
    "address": "Maine, U.S.A.\nMore info"
  },
  {
    "category": "Parks",
    "placeName": "Antelope Island State Park",
    "link": "https://darksky.org/places/antelope-island-dark-sky-park/",
    "coords": "41.0894784,-112.1130089",
    "mapsLink": "https://goo.gl/maps/uYrAWyUZRmP6ryss6",
    "address": "4528 West 1700 South\nSyracuse, Utah 84075 USA\nGoogle Maps"
  },
  {
    "category": "Parks",
    "placeName": "Anza-Borrego Desert State Park",
    "link": "https://darksky.org/places/anza-borrego-dark-sky-park/",
    "coords": "33.2559237,-116.4038851",
    "mapsLink": "https://goo.gl/maps/NYX2SHPXtSiAkp5A7",
    "address": "200 Palm Canyon Drive\nBorrego Springs, CA 92004 USA\nGoogle Maps"
  },
  {
    "category": "Reserves",
    "placeName": "Aoraki Mackenzie",
    "link": "https://darksky.org/places/aoraki-mackenzie-dark-sky-reserve/",
    "coords": "-43.5949749,169.8616369",
    "mapsLink": "https://goo.gl/maps/ssFwV8XDXQAisEx19",
    "address": "South Island, New Zealand\nGoogle Map"
  },
  {
    "category": "Sanctuaries",
    "placeName": "Aotea Great Barrier Island",
    "link": "https://darksky.org/places/aotea-great-barrier-island-dark-sky-sanctuary/",
    "coords": "-37.6612545,166.6167645",
    "mapsLink": "https://goo.gl/maps/gy2NYyxnpoy4112T9",
    "address": "North Island, New Zealand\nGoogle Maps"
  },
  {
    "category": "Parks",
    "placeName": "Arches National Park",
    "link": "https://darksky.org/places/arches-national-park-dark-sky-park/",
    "coords": "38.7320195,-109.7257232",
    "mapsLink": "https://goo.gl/maps/zKtVzwYnCeiv6vfk8",
    "address": "PO Box 907 \nMoab, UT 84532\nU.S.A.\nGoogle Map"
  },
  {
    "category": "Sanctuaries",
    "placeName": "Arkaroola Wilderness Sanctuary",
    "link": "https://darksky.org/places/arkaroola-wilderness-sanctuary-dark-sky-sanctuary/",
    "coords": "-30.3116867,139.3358408",
    "mapsLink": "https://goo.gl/maps/feoEysVr74UCjsww7",
    "address": "2948 Arkaroola Road,Arkaroola Village, Northern Flinders Ranges,South Australia, 5731, AustraliaGoogle Maps"
  },
  {
    "category": "Reserves",
    "placeName": "Bannau Brycheiniog National Park (Brecon Beacons)",
    "link": "https://darksky.org/places/brecon-beacons-national-park-dark-sky-reserve/",
    "coords": "51.8631966,-3.4275401",
    "mapsLink": "https://goo.gl/maps/24dHxAA8NdMK25rF7",
    "address": "Wales, United Kingdom\nGoogle Maps"
  },
  {
    "category": "Sanctuaries",
    "placeName": "Beaver Island State Wildlife Research Area",
    "link": "https://darksky.org/places/beaver-island-state-wildlife-research-area/",
    "coords": "45.6748267,-85.8084372",
    "mapsLink": "https://maps.app.goo.gl/LrosdspkMZQKFRfh7",
    "address": "29200 West Side RoadBeaver Island, MI 49782Google Maps"
  },
  {
    "category": "Communities",
    "placeName": "Bee Cave",
    "link": "https://darksky.org/places/bee-cave-dark-sky-community/",
    "coords": "30.6589749,-105.3130123",
    "mapsLink": "https://goo.gl/maps/F9B2fNe2crxdLCyq5",
    "address": "4000 Galleria Parkway\nBee Cave, Texas 78738\nGoogle Maps"
  },
  {
    "category": "Communities",
    "placeName": "Beverly Shores, Indiana",
    "link": "https://darksky.org/places/beverly-shores-indiana-dark-sky-community/",
    "coords": "41.7064441,-87.1319772",
    "mapsLink": "https://goo.gl/maps/XqecLiMczQWGFV9RA",
    "address": "Indiana, USA\nGoogle Maps"
  },
  {
    "category": "Parks",
    "placeName": "Big Bend National Park",
    "link": "https://darksky.org/places/big-bend-national-park-dark-sky-park/",
    "coords": "29.3342458,-103.2873843",
    "mapsLink": "https://goo.gl/maps/551TxnQpjqJrCsD57",
    "address": "Texas, USA\nGoogle Maps"
  },
  {
    "category": "Parks",
    "placeName": "Big Bend Ranch State Park",
    "link": "https://darksky.org/places/big-bend-ranch-dark-sky-park/",
    "coords": "29.269868,-103.7661333",
    "mapsLink": "https://goo.gl/maps/hZzbdbRApoWodoBi6",
    "address": "Barton Warnock Visitor Center\nTerlingua, TX 79852\nGoogle Maps"
  },
  {
    "category": "Parks",
    "placeName": "Big Cypress National Preserve",
    "link": "https://darksky.org/places/big-cypress-dark-sky-park/",
    "coords": "25.9006137,-81.322254",
    "mapsLink": "https://goo.gl/maps/MYbumCDGz7LAfbmp9",
    "address": "33100 Tamiami Trail\nEast Ochopee, FL 34141 USA\nGoogle Maps"
  },
  {
    "category": "Communities",
    "placeName": "Big Park / Village of Oak Creek, Arizona",
    "link": "https://darksky.org/places/big-park-village-of-oak-creek-dark-sky-community/",
    "coords": "34.77991,-111.755117",
    "mapsLink": "https://goo.gl/maps/SCsWhAFqzkXfzqX2A",
    "address": "Yavapai County, Arizona\nGoogle Maps"
  },
  {
    "category": "Communities",
    "placeName": "Bisei Town, Ibara City",
    "link": "https://darksky.org/places/bisei-town-ibara-city-dark-sky-community/",
    "coords": "34.6724314,133.5445685",
    "mapsLink": "https://goo.gl/maps/ABocSeWjkG68X7uz7",
    "address": "Bisei Town, Ibara, Okayama\n714-1411, Japan\nGoogle Map"
  },
  {
    "category": "Parks",
    "placeName": "Black Canyon of the Gunnison National Park",
    "link": "https://darksky.org/places/black-canyon-of-the-gunnison-national-park-dark-sky-park/",
    "coords": "38.5748599,-107.7351729",
    "mapsLink": "https://goo.gl/maps/Enn4XC47xiaT2vMe9",
    "address": "10346 Hwy 347\nMontrose, CO 81402 USA\nGoogle Maps"
  },
  {
    "category": "Sanctuaries",
    "placeName": "Black Gap Wildlife Management Area",
    "link": "https://darksky.org/places/black-gap-dark-sky-sanctuary/",
    "coords": "29.5668414,-102.9428952",
    "mapsLink": "https://goo.gl/maps/ketxSMaDKLagsCDu8",
    "address": "49476 FM 2627 Hwy\nAlpine, TX 79830\nU.S.A.\nGoogle Map"
  },
  {
    "category": "Communities",
    "placeName": "Blanco, Texas",
    "link": "https://darksky.org/places/city-of-blanco-texas-dark-sky-community/",
    "coords": "30.0990345,-98.4225428",
    "mapsLink": "https://goo.gl/maps/y9cfs2e1zjAYAj8G7",
    "address": "Blanco, Texas\nU.S.A.\nGoogle Map"
  },
  {
    "category": "Parks",
    "placeName": "Bodmin Moor Dark Sky Landscape",
    "link": "https://darksky.org/places/bodmin-moor-dark-sky-park/",
    "coords": "50.5547953,-4.6090771",
    "mapsLink": "https://goo.gl/maps/3RH3VJbCFRBRGARx5",
    "address": "Cornwall\nEngland\nGoogle Maps"
  },
  {
    "category": "Communities",
    "placeName": "Bon Accord, Alberta",
    "link": "https://darksky.org/places/bon-accord-dark-sky-community/",
    "coords": "53.8416343,-113.4155463",
    "mapsLink": "https://goo.gl/maps/bLfbSdNSYbSZiYSC7",
    "address": "Alberta, Canada\nGoogle Maps"
  },
  {
    "category": "Communities",
    "placeName": "Borrego Springs, California",
    "link": "https://darksky.org/places/borrego-springs-dark-sky-community/",
    "coords": "33.2549099,-116.352984",
    "mapsLink": "https://goo.gl/maps/VR3uhjTQzkVHb3pF6",
    "address": "California, USA\nGoogle Maps"
  },
  {
    "category": "Sanctuaries",
    "placeName": "Boundary Waters Canoe Area Wilderness",
    "link": "https://darksky.org/places/boundary-waters-canoe-area-dark-sky-sanctuary/",
    "coords": "48.0010416,-91.3362479",
    "mapsLink": "https://goo.gl/maps/yTtaVYB4tSU3KByw6",
    "address": "Superior National Forest8901 Grand Ave PlaceDuluth, MN 55808 USAGoogle Maps"
  },
  {
    "category": "Parks",
    "placeName": "Bruneau Dunes State Park",
    "link": "https://darksky.org/places/bruneau-dunes-state-park/",
    "coords": "42.9111653,-115.7150834",
    "mapsLink": "https://maps.app.goo.gl/PG5Ektjn2wkHv3Fo8",
    "address": "27608 Sand Dunes Road Mountain Home, ID 83647Google Maps"
  },
  {
    "category": "Parks",
    "placeName": "Bryce Canyon National Park",
    "link": "https://darksky.org/places/bryce-canyon-national-park-dark-sky-park/",
    "coords": "37.5838537,-112.1908124",
    "mapsLink": "https://goo.gl/maps/A1uHC6Ahq1kXprUv8",
    "address": "Highway 63 \nBryce, UT 84764\nU.S.A.\nGoogle Map"
  },
  {
    "category": "Parks",
    "placeName": "Buffalo National River",
    "link": "https://darksky.org/places/buffalo-national-river-dark-sky-park/",
    "coords": "35.9828912,-92.7548041",
    "mapsLink": "https://goo.gl/maps/ZXgrszxp92eKs5kb7",
    "address": "170 Ranger Road,\nSt Joe, AR 72675 U.S.A.\nGoogle Map"
  },
  {
    "category": "Parks",
    "placeName": "Bükk National Park",
    "link": "https://darksky.org/places/bukk-national-park-dark-sky-park/",
    "coords": "48.0556308,20.4037901",
    "mapsLink": "https://goo.gl/maps/ejcGR1buHD4RNkFn9",
    "address": "Borsod-Abaúj-Zemplén and Heves, Hungary\nGoogle Maps"
  },
  {
    "category": "Communities",
    "placeName": "Camp Verde, Arizona",
    "link": "https://darksky.org/places/camp-verde-dark-sky-park/",
    "coords": "34.575228,-111.8629025",
    "mapsLink": "https://goo.gl/maps/K211LsBaqZHmS67B6",
    "address": "Town of Camp Verde\n473 South Main Street\nCamp Verde, AZ 86322 U.S.A.\nGoogle Map"
  },
  {
    "category": "Parks",
    "placeName": "Canyonlands National Park",
    "link": "https://darksky.org/places/canyonlands-national-park-dark-sky-park/",
    "coords": "38.2269533,-109.9005907",
    "mapsLink": "https://goo.gl/maps/bR7s8drvYYXaXFMBA",
    "address": "Utah, U.S.\nGoogle Maps"
  },
  {
    "category": "Parks",
    "placeName": "Cape Lookout National Seashore",
    "link": "https://darksky.org/places/cape-lookout-national-seashore-dark-sky-park/",
    "coords": "34.6227469,-76.5246207",
    "mapsLink": "https://goo.gl/maps/63qAdq8iZFr2aDHB7",
    "address": "1800 Island Road\nHarkers Island, NC, 28531 U.S.A.\nGoogle Map"
  },
  {
    "category": "Parks",
    "placeName": "Capitol Reef National Park",
    "link": "https://darksky.org/places/capitol-reef-national-park-dark-sky-park/",
    "coords": "38.1202645,-111.1456716",
    "mapsLink": "https://goo.gl/maps/YmyDagyekp4f1r1T9",
    "address": "HC 70, Box 15\nTorrey, UT 84775 USA\nGoogle Maps"
  },
  {
    "category": "Parks",
    "placeName": "Capulin Volcano National Monument",
    "link": "https://darksky.org/places/capulin-volcano-national-monument-dark-sky-park/",
    "coords": "36.7816231,-103.9721263",
    "mapsLink": "https://goo.gl/maps/TUwtzbd1nFNjC2BE9",
    "address": "46 Volcano Road\nCapulin, NM 88414 USA\nGoogle Maps"
  },
  {
    "category": "Communities",
    "placeName": "Carrickalinga",
    "link": "https://darksky.org/places/carrickalinga/",
    "coords": "-35.4441835,138.3337033",
    "mapsLink": "https://maps.app.goo.gl/NtzSGJkUEKDufRE87",
    "address": "Carrickalingavia Carrickalinga RoadSouth Australia 5204Google Maps"
  },
  {
    "category": "Parks",
    "placeName": "Cedar Breaks National Monument",
    "link": "https://darksky.org/places/cedar-breaks-national-monument-dark-sky-park/",
    "coords": "37.6362696,-112.8539892",
    "mapsLink": "https://goo.gl/maps/nGxTCw5CeXwKLNvP8",
    "address": "2390 Highway 56 #11\nCedar City, UT 84721 USA\nGoogle Maps"
  },
  {
    "category": "Reserves",
    "placeName": "Central Idaho",
    "link": "https://darksky.org/places/central-idaho-dark-sky-reserve/",
    "coords": "45.494514,-114.143261",
    "mapsLink": "https://goo.gl/maps/WuXNYPqbFGNhGpug6",
    "address": "Idaho, U.S.\nGoogle Map"
  },
  {
    "category": "Reserves",
    "placeName": "Cévennes National Park",
    "link": "https://darksky.org/places/cevennes-dark-sky-reserve/",
    "coords": "44.2821091,3.6562269",
    "mapsLink": "https://goo.gl/maps/aUbMfZ5Grp2tWxQ67",
    "address": "Lozère and Gard, France\nGoogle Map"
  },
  {
    "category": "Parks",
    "placeName": "Chaco Culture National Historical Park",
    "link": "https://darksky.org/places/chaco-culture-national-historic-park-dark-sky-park/",
    "coords": "36.0529998,-107.955924",
    "mapsLink": "https://goo.gl/maps/xii5vdmsZrcjbVcV6",
    "address": "New Mexico, USA\nGoogle Maps"
  },
  {
    "category": "Parks",
    "placeName": "Cherry Springs State Park",
    "link": "https://darksky.org/places/cherry-springs-state-park-dark-sky-park/",
    "coords": "41.6632215,-77.8234031",
    "mapsLink": "https://goo.gl/maps/dgzwfNAX8jXA5BMH9",
    "address": "Pennsylvania, USA\nGoogle Maps"
  },
  {
    "category": "Parks",
    "placeName": "Chiricahua National Monument",
    "link": "https://darksky.org/places/chiricahua-national-monument-dark-sky-park/",
    "coords": "32.0121408,-109.3437992",
    "mapsLink": "https://goo.gl/maps/7ZWHESnoftrqk6sS9",
    "address": "12856 E Rhyolite Creek Rd\nWillcox, AZ 85643 U.S.A.\nGoogle Map"
  },
  {
    "category": "Parks",
    "placeName": "City of Rocks National Reserve",
    "link": "https://darksky.org/places/city-of-rocks-dark-sky-park/",
    "coords": "42.0727057,-113.7063657",
    "mapsLink": "https://goo.gl/maps/yiifHgHXq3BHwBWGA",
    "address": "City of Rocks Visitor Center\n3035 S Elba-Almo Road\nAlmo, ID 83312\nGoogle Maps"
  },
  {
    "category": "Parks",
    "placeName": "Clayton Lake State Park",
    "link": "https://darksky.org/places/clayton-lake-state-park-dark-sky-park/",
    "coords": "34.2069943,-117.3223723",
    "mapsLink": "https://goo.gl/maps/QANckyx8kawhECbg8",
    "address": "New Mexico, USA\nGoogle Maps"
  },
  {
    "category": "Communities",
    "placeName": "Coll",
    "link": "https://darksky.org/places/coll-dark-sky-community/",
    "coords": "56.6246136,-6.8420297",
    "mapsLink": "https://goo.gl/maps/SsdvLjziPPmy7iDF9",
    "address": "Scotland, United Kingdom\nGoogle Maps"
  },
  {
    "category": "Parks",
    "placeName": "Copper Breaks State Park",
    "link": "https://darksky.org/places/copper-breaks-state-park-dark-sky-park/",
    "coords": "34.1124143,-99.7506301",
    "mapsLink": "https://goo.gl/maps/B8vqc4cJjYCjpJW17",
    "address": "Texas, USA\nGoogle Maps"
  },
  {
    "category": "Sanctuaries",
    "placeName": "Cosmic Campground",
    "link": "https://darksky.org/places/cosmic-campground-dark-sky-place/",
    "coords": "33.47948,-108.9225102",
    "mapsLink": "https://goo.gl/maps/iABzsddEoJYEmEah8",
    "address": "Catron County\nNew Mexico, U.S.\nGoogle Maps"
  },
  {
    "category": "Communities",
    "placeName": "Cottonwood, Arizona",
    "link": "https://darksky.org/places/cottonwood-arizona-dark-sky-community/",
    "coords": "34.7072894,-112.0008641",
    "mapsLink": "https://goo.gl/maps/wSrpBbHUK8RALQuv5",
    "address": "827 North Main Street\nCottonwood, AZ 86326 U.S.A.\nGoogle Map"
  },
  {
    "category": "Reserves",
    "placeName": "Cranborne Chase",
    "link": "https://darksky.org/places/cranborne-chase-dark-sky-reserve/",
    "coords": "50.9559843,-2.0737152",
    "mapsLink": "https://goo.gl/maps/qPf1WJT7qjaWLMps8",
    "address": " Cranborne Chase National Landscape Office\nRushmore Farm, Tinkley Bottom,\nTollard Royal, Wiltshire, SP5 5QA\nEngland\nGoogle Map"
  },
  {
    "category": "Parks",
    "placeName": "Craters Of The Moon National Monument",
    "link": "https://darksky.org/places/craters-of-the-moon-national-monument-dark-sky-park/",
    "coords": "43.1717745,-113.4821281",
    "mapsLink": "https://goo.gl/maps/ExwZDNutidr6GmeQA",
    "address": "1266 Craters Loop Road\nArco, ID 83213 USA\nGoogle Maps"
  },
  {
    "category": "Communities",
    "placeName": "Crestone, Colorado",
    "link": "https://darksky.org/places/crestone-colorado-dark-sky-community/",
    "coords": "37.9952065,-105.6976515",
    "mapsLink": "https://goo.gl/maps/fZrtE64tiTa4mTfT8",
    "address": "108 W Galena Ave\nCrestone, CO 81131 U.S.A.\nGoogle Map"
  },
  {
    "category": "Parks",
    "placeName": "Curecanti National Recreation Area",
    "link": "https://darksky.org/places/curecanti-national-recreation-area-dark-sky-park/",
    "coords": "38.4659112,-107.1667169",
    "mapsLink": "https://goo.gl/maps/C2jAZzi9yt5voVGN6",
    "address": "102 Elk Creek\nGunnison, CO 81230\nU.S.A.\nGoogle Map"
  },
  {
    "category": "Parks",
    "placeName": "Dark Sky Park Bulbjerg",
    "link": "https://darksky.org/places/dark-sky-park-bulbjerg/",
    "coords": "57.153575,8.9600938",
    "mapsLink": "https://maps.app.goo.gl/zyaqSbGipXpzE2TE6",
    "address": "Strandvejen 110, 7741 Frøstrup, DenmarkGoogle Maps"
  },
  {
    "category": "Parks",
    "placeName": "De Boschplaat",
    "link": "https://darksky.org/places/de-boschplaat-dark-sky-park/",
    "coords": "53.4417368,5.2399328",
    "mapsLink": "https://goo.gl/maps/2sixLWsCxsjU4d9n8",
    "address": "Terschelling, Netherlands\nGoogle Maps"
  },
  {
    "category": "Parks",
    "placeName": "Dead Horse Point State Park",
    "link": "https://darksky.org/places/dead-horse-point-state-park-dark-sky-park/",
    "coords": "38.5054267,-109.7294241",
    "mapsLink": "https://goo.gl/maps/Am4tzyCUogfwh9vH9",
    "address": "Utah 313\nPO Box 609\nMoab, UT 84532\nGoogle Maps"
  },
  {
    "category": "Parks",
    "placeName": "Death Valley National Park",
    "link": "https://darksky.org/places/death-valley-national-park-dark-sky-park/",
    "coords": "36.4830059,-117.0496376",
    "mapsLink": "https://goo.gl/maps/1fFSigwpEWwBAF5Y7",
    "address": "California, U.S.\nGoogle Maps"
  },
  {
    "category": "Parks",
    "placeName": "Desengano State Park",
    "link": "https://darksky.org/places/desengano-dark-sky-park/",
    "coords": "-21.9048607,-41.9498187",
    "mapsLink": "https://goo.gl/maps/wYQyTZjTxTbmAjWK6",
    "address": "Avenida José Danta dos Santos, 35\n Horto Central Florestal Santos Lima, Santa Maria Madalena\nRJ, 28770-000, Brazil\nGoogle Map"
  },
  {
    "category": "Sanctuaries",
    "placeName": "Devils River State Natural Area — Del Norte Unit",
    "link": "https://darksky.org/places/devils-river-state-natural-area-dark-sky-sanctuary/",
    "coords": "29.9401792,-100.9698151",
    "mapsLink": "https://goo.gl/maps/s4d6JkXC2xRxQC5S9",
    "address": "21715 Dolan Creek Rd.Del Rio, Texas 78840USAGoogle Map"
  },
  {
    "category": "Parks",
    "placeName": "Dinosaur National Monument",
    "link": "https://darksky.org/places/dinosaur-national-monument-dark-sky-park/",
    "coords": "40.5126238,-108.967892",
    "mapsLink": "https://goo.gl/maps/Kon2sgHnc8PTabU89",
    "address": "4545 Hwy 40 \nDinosaur, Colorado 81610\nUSA\nGoogle Maps"
  },
  {
    "category": "Parks",
    "placeName": "Dr. T.K. Lawless County Park",
    "link": "https://darksky.org/places/dr-lawless-dark-sky-park/",
    "coords": "41.8974161,-85.8626857",
    "mapsLink": "https://goo.gl/maps/CJxhV6azzfn2t4xr5",
    "address": "15122 Monkey Run St\n Jones, MI 49061\nUSA\nGoogle Map"
  },
  {
    "category": "Communities",
    "placeName": "Dripping Springs, Texas",
    "link": "https://darksky.org/places/dripping-springs-dark-sky-community/",
    "coords": "30.1852095,-98.0874594",
    "mapsLink": "https://goo.gl/maps/d8Lg3Q1jgXdMxAVF6",
    "address": "Texas, USAGoogle Maps"
  },
  {
    "category": "Parks",
    "placeName": "East Canyon State Park",
    "link": "https://darksky.org/places/east-canyon-state-park-dark-sky-park/",
    "coords": "40.924596,-111.5909564",
    "mapsLink": "https://goo.gl/maps/ncp8eXv2ZYuaW2nz7",
    "address": "5535 South Highway 66\nMorgan, UT 84050 USA\nGoogle Maps"
  },
  {
    "category": "Parks",
    "placeName": "Eifel National Park",
    "link": "https://darksky.org/places/eifel-national-park-dark-sky-park/",
    "coords": "50.5973899,6.4171743",
    "mapsLink": "https://goo.gl/maps/JWje6ojTrdh9cFoP8",
    "address": "North Rhine-Westphalia, Germany\nGoogle Maps"
  },
  {
    "category": "Communities",
    "placeName": "Eiweiler Star Village",
    "link": "https://darksky.org/places/eiweiler-star-village/",
    "coords": "49.5526553,7.0107393",
    "mapsLink": "https://maps.app.goo.gl/BkvLSMt4Rnmt7UwFA",
    "address": "66625 Nohfelden-EiweilerGoogle Maps"
  },
  {
    "category": "Parks",
    "placeName": "El Morro National Monument",
    "link": "https://darksky.org/places/el-morro-national-monument-dark-sky-park/",
    "coords": "35.0397868,-108.352628",
    "mapsLink": "https://goo.gl/maps/GcupMBVhZxNp7TQSA",
    "address": "NM-53\nRamah, New Mexico 87321\nU.S.\nGoogle Maps"
  },
  {
    "category": "Parks",
    "placeName": "Elan Valley Estate",
    "link": "https://darksky.org/places/elan-valley-dark-sky-park/",
    "coords": "52.2916025,-3.571826",
    "mapsLink": "https://goo.gl/maps/VJupwq9Mero2uDLM9",
    "address": "Powys, Wales\nGoogle Maps"
  },
  {
    "category": "Parks",
    "placeName": "Enchanted Rock State Natural Area",
    "link": "https://darksky.org/places/enchanted-rock-state-natural-area-dark-sky-park/",
    "coords": "30.4951229,-98.8199993",
    "mapsLink": "https://goo.gl/maps/mZ6R3rbqJ51i8iNa6",
    "address": "Texas, USA\nGoogle Maps"
  },
  {
    "category": "Reserves",
    "placeName": "Eryri National Park (Snowdonia)",
    "link": "https://darksky.org/places/snowdonia-national-park-dark-sky-reserve/",
    "coords": "52.9005518,-3.8963384",
    "mapsLink": "https://goo.gl/maps/n7bWL36ZpyRwkeZr9",
    "address": "Wales, United Kingdom\nGoogle Maps"
  },
  {
    "category": "Reserves",
    "placeName": "Exmoor National Park",
    "link": "https://darksky.org/places/exmoor-national-park-dark-sky-place/",
    "coords": "51.134614,-3.6462346",
    "mapsLink": "https://goo.gl/maps/Jgwn9PLc4Lo56CkV9",
    "address": "North Devon, England\nGoogle Maps"
  },
  {
    "category": "Parks",
    "placeName": "Flagstaff Area National Monuments",
    "link": "https://darksky.org/places/flagstaff-area-national-monuments-dark-sky-park/",
    "coords": "35.204007,-111.5787022",
    "mapsLink": null,
    "address": "Sunset Crater Volcano National Monument"
  },
  {
    "category": "Communities",
    "placeName": "Flagstaff, Arizona",
    "link": "https://darksky.org/places/flagstaff-arizona-dark-sky-community/",
    "coords": "35.1812076,-111.607959",
    "mapsLink": "https://goo.gl/maps/EHDDkouAY9JseU1d8",
    "address": "Arizona, USA\nGoogle Maps"
  },
  {
    "category": "Parks",
    "placeName": "Florissant Fossil Beds National Monument",
    "link": "https://darksky.org/places/florissant-fossil-beds-national-monument-dark-sky-park/",
    "coords": "38.9136095,-105.2942414",
    "mapsLink": "https://goo.gl/maps/4tCTDwHvMQtNVNSq8",
    "address": "15807 Co Rd 1\nP.O. Box 185\nFlorissant, CO 80816 USA\nGoogle Maps"
  },
  {
    "category": "Parks",
    "placeName": "Fort Union National Monument",
    "link": "https://darksky.org/places/fort-union-national-monument-dark-sky-park/",
    "coords": "35.9049657,-105.0201344",
    "mapsLink": "https://goo.gl/maps/kRQrCAMSefSuhfMR8",
    "address": "P.O. Box 127\nWatrous, NM 87753\nUSA\nGoogle Maps"
  },
  {
    "category": "Communities",
    "placeName": "Fountain Hills, Arizona",
    "link": "https://darksky.org/places/fountain-hills-arizona-dark-sky-community/",
    "coords": "33.6041245,-111.7435215",
    "mapsLink": "https://goo.gl/maps/PM3DmZm5a4pqsTNL9",
    "address": "16705 E. Avenue of the Fountains\nFountain Hills, AZ 85268 USA\nGoogle Maps"
  },
  {
    "category": "Communities",
    "placeName": "Fredericksburg, Texas",
    "link": "https://darksky.org/places/fredericksburg-texas-dark-sky-community/",
    "coords": "30.2678595,-98.87806",
    "mapsLink": "https://goo.gl/maps/vz1d4JYgu9jbZA5E8",
    "address": "126 W Main St\nFredericksburg, TX 78624\nU.S.\nGoogle Maps"
  },
  {
    "category": "Parks",
    "placeName": "Fremont Indian State Park",
    "link": "https://darksky.org/places/fremont-indian-state-park-dark-sky-park/",
    "coords": "38.5775683,-112.3349416",
    "mapsLink": "https://goo.gl/maps/JnD1cTMyGPiWzitq6",
    "address": "3820 Clear Creek Canyon Rd\nSevier, UT 84766\nUSA\nGoogle Maps"
  },
  {
    "category": "Urban Places",
    "placeName": "Fry Family Park",
    "link": "https://darksky.org/places/fry-family-park-urban-night-sky-place/",
    "coords": "40.661852,-81.3536909",
    "mapsLink": "https://goo.gl/maps/Xaknr39kUhsd4pGeA",
    "address": "2533 Farber St. SE\nMagnolia, Ohio 44643\nGoogle Maps"
  },
  {
    "category": "Communities",
    "placeName": "Fulda, Hesse",
    "link": "https://darksky.org/places/fulda-dark-sky-community/",
    "coords": "50.5644255,9.6495359",
    "mapsLink": "https://goo.gl/maps/oUWRRZBopagEk8ZK6",
    "address": "Fulda, Hesse, Germany\nGoogle Maps"
  },
  {
    "category": "Sanctuaries",
    "placeName": "Gabriela Mistral",
    "link": "https://darksky.org/places/gabriela-mistral-dark-sky-sanctuary/",
    "coords": "-29.88702,-71.4227946",
    "mapsLink": "https://goo.gl/maps/sMfroaJSpzpWU8ET7",
    "address": "Elqui Valley, Chile\nGoogle Maps"
  },
  {
    "category": "Parks",
    "placeName": "Galloway Forest Park",
    "link": "https://darksky.org/places/galloway-forest-park-dark-sky-park/",
    "coords": "55.3007745,-4.4650614",
    "mapsLink": "https://goo.gl/maps/uqWFAyeyWZHQ13TH7",
    "address": "Dumfries and Galloway, Scotland\nGoogle Maps"
  },
  {
    "category": "Parks",
    "placeName": "Gantrisch Dark Sky Zone, Switzerland",
    "link": "https://darksky.org/places/gantrisch-dark-sky-zone-switzerland/",
    "coords": "46.7819074,7.3376995",
    "mapsLink": "https://maps.app.goo.gl/Rb1FzroKqJr4q1Zy7",
    "address": "Schlossgasse 13 3150 Schwarzenburg, SwitzerlandGoogle Maps"
  },
  {
    "category": "Parks",
    "placeName": "Geauga Observatory Park",
    "link": "https://darksky.org/places/geauga-observatory-park-dark-sky-park/",
    "coords": "41.5848846,-81.0805816",
    "mapsLink": "https://goo.gl/maps/iPbFqkoDtsKt5VM39",
    "address": "10610 Clay Street\nMontville Township, OH 44064 USA\nGoogle Maps"
  },
  {
    "category": "Parks",
    "placeName": "Goblin Valley State Park",
    "link": "https://darksky.org/places/goblin-valley-state-park-dark-sky-park/",
    "coords": "38.5779757,-110.7074544",
    "mapsLink": "https://goo.gl/maps/NXyYM1QiLoFxvw3M7",
    "address": "18630 Goblin Valley Road\nGreen River, UT 84525 USA\nGoogle Maps"
  },
  {
    "category": "Parks",
    "placeName": "Goosenecks State Park",
    "link": "https://darksky.org/places/goosenecks-state-park-dark-sky-park/",
    "coords": "37.1749025,-109.9271273",
    "mapsLink": "https://goo.gl/maps/kSd8BHCnuZP6Wd1Q6",
    "address": "UT-316,\nMexican Hat, UT 84531\nUSA\nGoogle Maps"
  },
  {
    "category": "Parks",
    "placeName": "Grand Canyon National Park",
    "link": "https://darksky.org/places/grand-canyon-national-park-dark-sky-park/",
    "coords": "36.0924094,-112.843134",
    "mapsLink": "https://goo.gl/maps/xoXu3ufoogqV5WhN7",
    "address": "PO Box 129\nGrand Canyon, AZ 86023 USA\nGoogle Maps"
  },
  {
    "category": "Parks",
    "placeName": "Grand Canyon-Parashant National Monument",
    "link": "https://darksky.org/places/grand-canyon-parashant-national-monument-dark-sky-park/",
    "coords": "36.3058464,-113.6680742",
    "mapsLink": "https://goo.gl/maps/hKrDm7foZtbDf9Fw5",
    "address": "Arizona, USA\nGoogle Maps"
  },
  {
    "category": "Parks",
    "placeName": "Great Basin National Park",
    "link": "https://darksky.org/places/great-basin-national-park-dark-sky-park/",
    "coords": "38.9418717,-114.242784",
    "mapsLink": "https://goo.gl/maps/uVzPnq6jXi7WJstv7",
    "address": "100 Great Basin National Park\nBaker, NV 89311 USA\nGoogle Maps"
  },
  {
    "category": "Parks",
    "placeName": "Great Sand Dunes National Park and Preserve",
    "link": "https://darksky.org/places/great-sand-dunes-national-park-dark-sky-park/",
    "coords": "37.801971,-105.5940235",
    "mapsLink": "https://goo.gl/maps/t7ontZL6a9J61vhJ8",
    "address": "11999 State Highway 150 \nMosca, CO 81146\nUSA\nGoogle Maps"
  },
  {
    "category": "Reserves",
    "placeName": "Greater Big Bend International Dark Sky Reserve",
    "link": "https://darksky.org/places/greater-big-bend-international-dark-sky-reserve/",
    "coords": "30.6797399,-104.0247391",
    "mapsLink": "https://goo.gl/maps/itGXeKbuhjhoGJkq6",
    "address": "McDonald Observatory\n3640 Dark Sky Dr\nFort Davis, Texas, US 79734\nGoogle Maps"
  },
  {
    "category": "Communities",
    "placeName": "Groveland, Florida",
    "link": "https://darksky.org/places/groveland-florida-dark-sky-community/",
    "coords": "28.5951616,-81.8249223",
    "mapsLink": "https://goo.gl/maps/6ViXYXLPgyGMJeUp7",
    "address": "156 S Lake Avenue Groveland\nFlorida 34736\nGoogle Maps"
  },
  {
    "category": "Parks",
    "placeName": "Gunnison Gorge National Conservation Area",
    "link": "https://darksky.org/places/gunnison-gorge-national-conservation-area/",
    "coords": "38.6716392,-107.8824773",
    "mapsLink": "https://maps.app.goo.gl/RD7g2nswE3De1YFT6",
    "address": "2505 South Townsend Ave, Montrose, CO 81401USAGoogle Maps"
  },
  {
    "category": "Communities",
    "placeName": "Hawthorn Woods, Illinois",
    "link": "https://darksky.org/places/hawthorn-woods-illinois-dark-sky-community/",
    "coords": "42.241027,-88.0675794",
    "mapsLink": "https://goo.gl/maps/KmsMDDyjs4K7Rt2HA",
    "address": "2 Lagoon Drive\nHawthorn Woods, IL 60047 USA\nGoogle Maps"
  },
  {
    "category": "Parks",
    "placeName": "Headlands",
    "link": "https://darksky.org/places/headlands-dark-sky-park/",
    "coords": "45.7754705,-84.7811722",
    "mapsLink": "https://goo.gl/maps/uZuEccTvhN5tEktH7",
    "address": "Emmet County, Michigan\nUSA\nGoogle Maps"
  },
  {
    "category": "Parks",
    "placeName": "Hehuan Mountain",
    "link": "https://darksky.org/places/hehuan-mountain-dark-sky-park/",
    "coords": "24.1986458,121.2657316",
    "mapsLink": "https://goo.gl/maps/DNEcXPNaJg5o63w39",
    "address": "Nantou County, TaiwanGoogle Maps"
  },
  {
    "category": "Communities",
    "placeName": "Helper, Utah",
    "link": "https://darksky.org/places/helper-utah-dark-sky-community/",
    "coords": "39.6922602,-110.8975733",
    "mapsLink": "https://goo.gl/maps/tohPHnN76fXJKMwf7",
    "address": "58 South Main Street,\nHelper, UT 84526\nU.S.\nGoogle Maps"
  },
  {
    "category": "Communities",
    "placeName": "Homer Glen, Illinois",
    "link": "https://darksky.org/places/homer-glen-illinois-dark-sky-community/",
    "coords": "41.5962774,-88.0991383",
    "mapsLink": "https://goo.gl/maps/3HEmvq6rdNYXxgD28",
    "address": "Illinois, USA\nGoogle Maps"
  },
  {
    "category": "Communities",
    "placeName": "Horseshoe Bay, Texas",
    "link": "https://darksky.org/places/horseshoe-bay-texas-dark-sky-community/",
    "coords": "30.5435657,-98.3752751",
    "mapsLink": "https://goo.gl/maps/CvSiuCB29AMmUAdi8",
    "address": "Horseshoe Bay, Texas\nGoogle Maps"
  },
  {
    "category": "Parks",
    "placeName": "Hovenweep National Monument",
    "link": "https://darksky.org/places/hovenweep-national-monument-dark-sky-park/",
    "coords": "37.3837623,-109.0726022",
    "mapsLink": "https://goo.gl/maps/xgo6YfuQYX7ghfnE6",
    "address": "Utah and Colorado, USAGoogle Maps"
  },
  {
    "category": "Parks",
    "placeName": "Iriomote-Ishigaki National Park",
    "link": "https://darksky.org/places/iriomote-ishigaki-national-park-dark-sky-park/",
    "coords": "24.3491732,123.8568106",
    "mapsLink": "https://goo.gl/maps/aRty9gFLRrQJXy4CA",
    "address": "Yaeyama Islands\nOkinawa Prefecture, Japan\nGoogle Maps"
  },
  {
    "category": "Sanctuaries",
    "placeName": "Isle of Rum",
    "link": "https://darksky.org/places/isle-of-rum/",
    "coords": "56.9979161,-6.4316812",
    "mapsLink": "https://maps.app.goo.gl/cBtUPbDr7Zd3AWtu8",
    "address": "Highlands and Islands, PH434RR, ScotlandUnited KingdomGoogle Maps"
  },
  {
    "category": "Parks",
    "placeName": "Jackson Lake State Park",
    "link": "https://darksky.org/places/jackson-lake-state-park-dark-sky-park/",
    "coords": "40.3846702,-104.1003727",
    "mapsLink": "https://goo.gl/maps/roQiVhFPuuhieX5J9",
    "address": "Jackson Lake State Park\n26363 Count Rd 3\nOrchard, CO 80649\nGoogle Maps"
  },
  {
    "category": "Parks",
    "placeName": "James River State Park",
    "link": "https://darksky.org/places/james-river-state-park-dark-sky-park/",
    "coords": "37.6237424,-78.8083625",
    "mapsLink": "https://goo.gl/maps/V8phpP1TfQgfofQo6",
    "address": "104 Green Hill Drive\nGladstone, Virginia 24553\nUSA\nGoogle Maps"
  },
  {
    "category": "Communities",
    "placeName": "Jelsa",
    "link": "https://darksky.org/places/jelsa-dark-sky-community/",
    "coords": "43.1616673,16.6865015",
    "mapsLink": "https://goo.gl/maps/1TKao6d7urwo7nCN8",
    "address": "Trg Tome Gamulina 1\n 21465, Jelsa, Croatia\nGoogle Maps"
  },
  {
    "category": "Communities",
    "placeName": "Jonestown, Texas",
    "link": "https://darksky.org/places/jonestown-texas/",
    "coords": "30.4811547,-97.9340715",
    "mapsLink": "https://maps.app.goo.gl/mrBjVVYCDfAMD7dA6",
    "address": "17509 Lighthouse Ln. Jonestown, TX 78645Google Maps"
  },
  {
    "category": "Parks",
    "placeName": "Jordanelle State Park",
    "link": "https://darksky.org/places/jordanelle-state-park-dark-sky-park/",
    "coords": "40.6199592,-111.4184577",
    "mapsLink": "https://goo.gl/maps/yQ9u5zoWHeoGcpq7A",
    "address": "515 UT-319\nHeber City, UT 84032 1\nUSA\nGoogle Maps"
  },
  {
    "category": "Parks",
    "placeName": "Joshua Tree National Park",
    "link": "https://darksky.org/places/joshua-tree-national-park-dark-sky-park/",
    "coords": "33.8949056,-116.9816199",
    "mapsLink": "https://goo.gl/maps/4cPLqv7FBpfdEQT36",
    "address": "74485 National Park Drive\nTwentynine Palms, CA 92277 USA\nGoogle Maps"
  },
  {
    "category": "Urban Places",
    "placeName": "Joya-La Barreta Ecological Park",
    "link": "https://darksky.org/places/joya-la-barreta-ecological-park/",
    "coords": "20.8089809,-100.5312323",
    "mapsLink": null,
    "address": "Santa Rosa Jáuregui, 76221 Querétaro, MexicoGoogle Maps"
  },
  {
    "category": "Communities",
    "placeName": "Julian, California",
    "link": "https://darksky.org/places/julian-dark-sky-community/",
    "coords": "33.0783288,-116.6023645",
    "mapsLink": "https://goo.gl/maps/so39eZyBttpwn4V58",
    "address": "2129 Main Street\nJulian, CA 92036 USA\nGoogle Maps"
  },
  {
    "category": "Parks",
    "placeName": "Kartchner Caverns State Park",
    "link": "https://darksky.org/places/kartchner-caverns-state-park-dark-sky-park/",
    "coords": "31.8365957,-110.3576396",
    "mapsLink": "https://goo.gl/maps/XnmHcmnguzouhZuy8",
    "address": "2980 Hwy 90\nBenson, AZ 85602 USA\nGoogle Maps"
  },
  {
    "category": "Sanctuaries",
    "placeName": "Katahdin Woods and Waters National Monument",
    "link": "https://darksky.org/places/katahdin-woods-and-waters-dark-sky-sanctuary/",
    "coords": "45.956534,-68.7210472",
    "mapsLink": "https://goo.gl/maps/gV3SHTM2rMmbWMzVA",
    "address": "Patten, ME 04765\nU.S.\nGoogle Maps"
  },
  {
    "category": "Parks",
    "placeName": "Kawarau Gibbston Dark Sky Park",
    "link": "https://darksky.org/places/kawarau-gibbston-dark-sky-park/",
    "coords": "-45.0293717,168.4113966",
    "mapsLink": "https://maps.app.goo.gl/JnLK4ppDNogGxH4XA",
    "address": "2328 Gibbston Highway, RD1 Queenstown, New ZealandGoogle Maps"
  },
  {
    "category": "Reserves",
    "placeName": "Kerry",
    "link": "https://darksky.org/places/kerry-dark-sky-reserve/",
    "coords": "52.1453874,-9.8687228",
    "mapsLink": "https://goo.gl/maps/morD8ZNCbfCCk4Ex6",
    "address": "County Kerry, Republic of Ireland\nGoogle Maps"
  },
  {
    "category": "Communities",
    "placeName": "Ketchum, Idaho",
    "link": "https://darksky.org/places/ketchum-dark-sky-community/",
    "coords": "43.6863586,-114.451659",
    "mapsLink": "https://goo.gl/maps/ydxhTxFEA6hFLPkh6",
    "address": "Ketchum City Hall\nPO Box 2315\n480 East Ave. N.\nKetchum, ID 83340 USA\nGoogle Maps"
  },
  {
    "category": "Parks",
    "placeName": "Keweenaw Dark Sky Park",
    "link": "https://darksky.org/places/keweenaw-michigan-dark-sky-park/",
    "coords": "47.2501967,-88.3684648",
    "mapsLink": "https://goo.gl/maps/fAqTtaqMgwmZHJeg9",
    "address": "Keweenaw Mountain Lodge\n14252 US HWY 41\nCopper Harbor, MI 49918\nGoogle Maps"
  },
  {
    "category": "Parks",
    "placeName": "Kissimmee Prairie Preserve State Park",
    "link": "https://darksky.org/places/kissimmee-prairie-preserve-dark-sky-park/",
    "coords": "27.5698247,-81.0857231",
    "mapsLink": "https://goo.gl/maps/R2wczhi5K4hmk5F28",
    "address": "33104 NW 192nd Ave\nOkeechobee, FL 34972 USA\nGoogle Maps"
  },
  {
    "category": "Parks",
    "placeName": "Kozushima Dark Sky Island",
    "link": "https://darksky.org/places/kozushima-island-dark-sky-park/",
    "coords": "34.0942085,139.0045908",
    "mapsLink": "https://goo.gl/maps/fUPjV7MhUtYJ6XQx5",
    "address": "907 Kozushima Village\nTokyo 100-0601\nJapan\nGoogle Maps"
  },
  {
    "category": "Parks",
    "placeName": "Lake Fork Earth and Sky Center",
    "link": "https://darksky.org/places/lake-fork-earth-and-sky-center-dark-sky-park/",
    "coords": "37.9970407,-107.2917727",
    "mapsLink": "https://goo.gl/maps/ErB5Di3YqiEpk18P8",
    "address": "1118 Silver Street\nLake City, CO 81235, U.S.\nGoogle Maps"
  },
  {
    "category": "Communities",
    "placeName": "Lakewood Village, Texas",
    "link": "https://darksky.org/places/lakewood-village-texas-dark-sky-community/",
    "coords": "33.1383101,-96.9929821",
    "mapsLink": "https://goo.gl/maps/bg7bQ7HDv5Fe7hSK8",
    "address": "100 Highridge Drive\nLakewood Village, Texas 75068\nUSA\nGoogle Maps"
  },
  {
    "category": "Parks",
    "placeName": "Lauwersmeer National Park",
    "link": "https://darksky.org/places/lauwersmeer-national-park-dark-sky-park/",
    "coords": "53.3744176,6.1642691",
    "mapsLink": "https://goo.gl/maps/tgADV5iByEqMjGCR6",
    "address": "Friesland and Groningen, Netherlands\nGoogle Maps"
  },
  {
    "category": "Sanctuaries",
    "placeName": "Lost Trail National Wildlife Refuge",
    "link": "https://darksky.org/places/lost-trail-national-wildlife-refuge-dark-sky-sanctuary/",
    "coords": "48.1763645,-114.8826719",
    "mapsLink": "https://goo.gl/maps/yZwpWmRhENuPnuBNA",
    "address": "6295 Pleasant Valley Road\nMarion, MT 59925\nGoogle Maps"
  },
  {
    "category": "Parks",
    "placeName": "Lyndon B. Johnson National Historical Park",
    "link": "https://darksky.org/places/lyndon-b-johnson-national-historical-park-dark-sky-park/",
    "coords": "30.2373905,-98.6292057",
    "mapsLink": "https://goo.gl/maps/83Y5HRX2jkAmhY179",
    "address": "199 State Park Road 52\nStonewall, Texas, USA 78671\nGoogle Maps"
  },
  {
    "category": "Parks",
    "placeName": "Mammoth Cave National Park",
    "link": "https://darksky.org/places/mammoth-cave-national-park-dark-sky-park/",
    "coords": "37.1953834,-86.1405956",
    "mapsLink": "https://goo.gl/maps/jm5mxcNDbGHh4iAU9",
    "address": "1 Mammoth Cave Pkwy\nMammoth Cave, KY 42259\nGoogle Maps"
  },
  {
    "category": "Parks",
    "placeName": "Mandø",
    "link": "https://darksky.org/places/mando/",
    "coords": "55.280622,8.5588913",
    "mapsLink": "https://maps.app.goo.gl/zss12mmEVFARXUXN7",
    "address": "Midtvej 7, 6760 RibeDenmarkGoogle Maps"
  },
  {
    "category": "Sanctuaries",
    "placeName": "Massacre Rim Wilderness Study Area",
    "link": "https://darksky.org/places/massacre-rim-wilderness-study-area-dark-sky-sanctuary/",
    "coords": "40.5815254,-119.5885085",
    "mapsLink": "https://goo.gl/maps/NqLjJqgvx4W8cZen6",
    "address": "Washoe County\nNevada, USA\nGoogle Maps"
  },
  {
    "category": "Parks",
    "placeName": "Mayland Earth to Sky Park & Bare Dark Sky Observatory",
    "link": "https://darksky.org/places/mayland-earth-to-sky-park-dark-sky-park/",
    "coords": "35.930157,-82.1897855",
    "mapsLink": "https://goo.gl/maps/QyAaw4mB7xxsUEL66",
    "address": "North Carolina, USA\nGoogle Maps"
  },
  {
    "category": "Parks",
    "placeName": "Mayo Dark Sky Park",
    "link": "https://darksky.org/places/mayo-dark-sky-park/",
    "coords": "53.0470819,-17.163881",
    "mapsLink": "https://goo.gl/maps/jJgBvQQt2qxHW4zeA",
    "address": "County Mayo\nRepublic of Ireland\nGoogle Maps"
  },
  {
    "category": "Sanctuaries",
    "placeName": "Medicine Rocks State Park",
    "link": "https://darksky.org/places/medicine-rocks-state-park-dark-sky-sanctuary/",
    "coords": "46.0443947,-104.4794908",
    "mapsLink": "https://goo.gl/maps/N2P2NzCfoH7jRTEz7",
    "address": "1141 Hwy. 7\nEkalaka, MT\nUSA\nGoogle Maps"
  },
  {
    "category": "Parks",
    "placeName": "Merritt Reservoir State Recreation Area",
    "link": "https://darksky.org/places/merritt-reservoir-dark-sky-park/",
    "coords": "42.5960542,-100.9003806",
    "mapsLink": "https://goo.gl/maps/nW2voyXMmCNEtYZQ8",
    "address": "Merritt Trading Post\n88337 NE-97\nValentine, NE 69201\nGoogle Maps"
  },
  {
    "category": "Parks",
    "placeName": "Mesa Verde National Park",
    "link": "https://darksky.org/places/mesa-verde-national-park-dark-sky-park/",
    "coords": "37.2428606,-108.4654568",
    "mapsLink": "https://goo.gl/maps/kfUZXBw4fR8oQGkF6",
    "address": "PO Box 8\nMesa Verde National Park, CO 81330 USA\nGoogle Maps"
  },
  {
    "category": "Parks",
    "placeName": "Middle Fork River Forest Preserve",
    "link": "https://darksky.org/places/middle-fork-river-forest-preserve-dark-sky-park/",
    "coords": "40.3824033,-87.9510488",
    "mapsLink": "https://goo.gl/maps/o8z5p8kbzq2hYdJ68",
    "address": "3433 County Rd 2700 E,\nPenfield, IL 61862\nUSA\nGoogle Maps"
  },
  {
    "category": "Parks",
    "placeName": "Milton Reimers Ranch Park",
    "link": "https://darksky.org/places/milton-reimers-ranch-park-dark-sky-park/",
    "coords": "30.3337022,-98.1223129",
    "mapsLink": "https://goo.gl/maps/BrC46D6Y7Djpd52k6",
    "address": "23610 Hamilton Pool Road\nDripping Springs, TX 78620\nGoogle Maps"
  },
  {
    "category": "Urban Places",
    "placeName": "Minami-Rokuroshi",
    "link": "https://darksky.org/places/minami-rokuroshi/",
    "coords": "35.8805611,136.7587427",
    "mapsLink": "https://www.google.com/maps/place/36%C2%B001'30.7%22N+136%C2%B035'38.4%22E/@35.8805611,136.7587427,9.98z/data=!4m4!3m3!8m2!3d36.0252!4d136.594?entry=ttu",
    "address": "1-1 TenjinchoOno City, Fukui 912-8666, JAPANGoogle Map"
  },
  {
    "category": "Communities",
    "placeName": "Moffat",
    "link": "https://darksky.org/places/moffat-dark-sky-community/",
    "coords": "55.3329713,-3.475094",
    "mapsLink": "https://goo.gl/maps/fZqJCYTMv2WJ7bUs5",
    "address": "Dumfries and Galloway\nScotland\nGoogle Maps"
  },
  {
    "category": "Reserves",
    "placeName": "Mont-Mégantic",
    "link": "https://darksky.org/places/mont-megantic-dark-sky-reserve/",
    "coords": "45.4551842,-71.1848726",
    "mapsLink": "https://goo.gl/maps/h3YJBRJkdErjWqD9A",
    "address": "Québec, Canada\nGoogle Maps"
  },
  {
    "category": "Reserves",
    "placeName": "Moore’s Reserve",
    "link": "https://darksky.org/places/moores-reserve-south-downs-dark-sky-reserve/",
    "coords": "50.9346335,-0.5486008",
    "mapsLink": "https://goo.gl/maps/9CNvBNo9TSbXaLjVA",
    "address": "South Downs National Park\nSussex and Hampshire, England\nGoogle Maps"
  },
  {
    "category": "Communities",
    "placeName": "Møn and Nyord",
    "link": "https://darksky.org/places/mon-and-nyord-dark-sky-community/",
    "coords": "54.9799343,12.0566886",
    "mapsLink": "https://goo.gl/maps/snSsA2t2SqmJEstd8",
    "address": "Vordingbord Kommune\nDenmark\nGoogle Maps"
  },
  {
    "category": "Parks",
    "placeName": "Møn and Nyord",
    "link": "https://darksky.org/places/mon-and-nyord-dark-sky-park/",
    "coords": "54.9799343,12.0566886",
    "mapsLink": "https://goo.gl/maps/Xjk57GHMkc2kb4un6",
    "address": "Vordingbord Kommune\nDenmark\nGoogle Maps"
  },
  {
    "category": "Reserves",
    "placeName": "NamibRand Nature Reserve",
    "link": "https://darksky.org/places/namibrand-dark-sky-reserve/",
    "coords": "-25,16",
    "mapsLink": "https://goo.gl/maps/wGVdo62MPidNuzej9",
    "address": "Namibia, AfricaGoogle Maps"
  },
  {
    "category": "Parks",
    "placeName": "Natural Bridge State Park",
    "link": "https://darksky.org/places/natural-bridge-state-park-dark-sky-park/",
    "coords": "37.6286389,-79.5437481",
    "mapsLink": "https://goo.gl/maps/J34GEWyvZnrVvWcA8",
    "address": "6477 South Lee Highway\nNatural Bridge, VA 24578 USA\nGoogle Maps"
  },
  {
    "category": "Parks",
    "placeName": "Natural Bridges National Monument",
    "link": "https://darksky.org/places/natural-bridges-national-monument-dark-sky-park/",
    "coords": "37.6032007,-110.005769",
    "mapsLink": "https://goo.gl/maps/mkKR8PDb7JUzsJKp7",
    "address": "Utah, USA\nGoogle Maps"
  },
  {
    "category": "Parks",
    "placeName": "Naturpark Attersee-Traunsee",
    "link": "https://darksky.org/places/naturpark-attersee-traunsee-dark-sky-park/",
    "coords": "47.8309713,13.5493624",
    "mapsLink": "https://goo.gl/maps/Rwbc7k5deytHeY6D8",
    "address": "Steinbach 5\nA-4853\nSteinbach am Attersee\nAustria\nGoogle Maps"
  },
  {
    "category": "Parks",
    "placeName": "Newport State Park",
    "link": "https://darksky.org/places/newport-state-park-dark-sky-park/",
    "coords": "45.2410642,-86.9916127",
    "mapsLink": "https://goo.gl/maps/B4PUNFNQ6YnhgFCu9",
    "address": "475 County Highway NP\nEllison Bay WI 54210 USA\nGoogle Maps"
  },
  {
    "category": "Communities",
    "placeName": "Niue",
    "link": "https://darksky.org/places/niue-dark-sky-community/",
    "coords": "-19.0539835,-169.8620488",
    "mapsLink": "https://goo.gl/maps/ost4rLdTPp16H46k7",
    "address": "Alofi\nNiue\nGoogle Maps"
  },
  {
    "category": "Sanctuaries",
    "placeName": "Niue",
    "link": "https://darksky.org/places/niue-dark-sky-sanctuary/",
    "coords": "-19.0540913,-169.903404",
    "mapsLink": null,
    "address": "Alofi\nNiue"
  },
  {
    "category": "Parks",
    "placeName": "North Fork Park",
    "link": "https://darksky.org/places/north-fork-park-dark-sky-park/",
    "coords": "-19.0539835,-174.2744327",
    "mapsLink": "https://goo.gl/maps/min1An3PJsVU8L8g9",
    "address": "Weber County, Utah, USA\nGoogle Maps"
  },
  {
    "category": "Communities",
    "placeName": "North Ronaldsay Dark Sky Island",
    "link": "https://darksky.org/places/north-ronaldsay-island-dark-sky-community/",
    "coords": "59.3701753,-2.410276",
    "mapsLink": "https://goo.gl/maps/jvyLdVWAD6UfnbRz7",
    "address": "North Ronaldsay\nOrkney, Scotland\nGoogle Maps"
  },
  {
    "category": "Reserves",
    "placeName": "North York Moors National Park",
    "link": "https://darksky.org/places/north-york-moors-national-park-dark-sky-reserve/",
    "coords": "54.374848,-0.8827475",
    "mapsLink": "https://goo.gl/maps/wpivMq2zwdSDPupw5",
    "address": "The Old Vicarage\nBondgate, Helmsley, York, North Yorkshire\nY062 5BP\nUnited Kingdom\nGoogle Maps"
  },
  {
    "category": "Parks",
    "placeName": "Northumberland National Park and Kielder Water & Forest Park",
    "link": "https://darksky.org/places/northumberland-national-park-and-kielder-water-forest-dark-sky-park/",
    "coords": "55.2476158,-2.9881994",
    "mapsLink": "https://goo.gl/maps/uGDNQDqc5VKeDNdLA",
    "address": "Northumberland, England\nUnited Kingdom\nGoogle Maps"
  },
  {
    "category": "Communities",
    "placeName": "Norwood, Colorado",
    "link": "https://darksky.org/places/norwood-colorado-dark-sky-community/",
    "coords": "38.1280746,-108.291276",
    "mapsLink": "https://goo.gl/maps/TuBHQwH9N1eDQN967",
    "address": "Norwood, Colorado\nUSA\nGoogle Maps"
  },
  {
    "category": "Communities",
    "placeName": "Nucla and Naturita, Colorado",
    "link": "https://darksky.org/places/nucla-and-naturita-colorado-dark-sky-community/",
    "coords": "38.2660654,-108.548452",
    "mapsLink": "https://goo.gl/maps/x6nQbkNYL1Ry9BkeA",
    "address": "320 Main St, Nucla, CO 81424 USA\n222 E Main St, Naturita, CO 81422 USA\nGoogle Maps"
  },
  {
    "category": "Parks",
    "placeName": "Obed Wild and Scenic River",
    "link": "https://darksky.org/places/obed-wild-and-scenic-river-dark-sky-park/",
    "coords": "36.0792147,-84.7653846",
    "mapsLink": "https://goo.gl/maps/9Wg4Fca2JDi9EJjU9",
    "address": "Park Headquarters:\n208 N. Maiden Street\nWartburg, TN 37887\nGoogle Maps"
  },
  {
    "category": "Parks",
    "placeName": "OM Dark Sky Park & Observatory",
    "link": "https://darksky.org/places/om-dark-sky-park-and-observatory-dark-sky-park/",
    "coords": "54.7189848,-6.916839",
    "mapsLink": "https://goo.gl/maps/ezHSi31N9UbTGiLS8",
    "address": "Davagh Road\nOmagh\nCounty Tyrone\nBT79 8JH\nUnited Kingdom\nGoogle Maps"
  },
  {
    "category": "Parks",
    "placeName": "Oracle State Park",
    "link": "https://darksky.org/places/oracle-state-park-dark-sky-park/",
    "coords": "32.6092999,-110.7336284",
    "mapsLink": "https://goo.gl/maps/Y3qzMjdgB9QzHyUK9",
    "address": "Oracle, Arizona, U.S.Google Maps"
  },
  {
    "category": "Sanctuaries",
    "placeName": "Oregon Outback",
    "link": "https://darksky.org/places/oregon-outback-international-dark-sky-sanctuary-oregon/",
    "coords": "42.1907184,-120.4850777",
    "mapsLink": "https://maps.app.goo.gl/4PsQDmEd3qRkkRWTA",
    "address": "Lake County Chamber of Commerce 126 North E Street, Lakeview, OR 97630Google Maps"
  },
  {
    "category": "Parks",
    "placeName": "Oxford Forest Conservation Area, New Zealand",
    "link": "https://darksky.org/places/oxford-forest-conservation-area-new-zealand/",
    "coords": "-43.270845,172.0749878",
    "mapsLink": "https://maps.app.goo.gl/Jh9G8TQc185EQLg16",
    "address": "Oxford Forest Conservation AreaMountain RoadCoopers Creek-Oxford, New Zealand 7495Google Maps"
  },
  {
    "category": "Parks",
    "placeName": "Øvre Pasvik National Park",
    "link": "https://darksky.org/places/ovre-pasvik-national-park/",
    "coords": "69.1146157,29.0105591",
    "mapsLink": "https://maps.app.goo.gl/2m9qFQkpHHcPvQKLA",
    "address": "Fv8850 1, 9926 Svanvik, NorwayGoogle Maps"
  },
  {
    "category": "Urban Places",
    "placeName": "Palm Beach Headland",
    "link": "https://darksky.org/places/palm-beach-headland/",
    "coords": "-33.6067164,151.3124831",
    "mapsLink": "https://maps.app.goo.gl/j28iY3KiyEB3fcZF8",
    "address": "Beach RoadPalm Beach, NSW, 2108Google Maps"
  },
  {
    "category": "Urban Places",
    "placeName": "Palos Preserves",
    "link": "https://darksky.org/places/palos-preserves-urban-night-sky-place/",
    "coords": "41.7294575,-87.8747244",
    "mapsLink": "https://goo.gl/maps/V91sqmuTAMPqLArW9",
    "address": "9800 Willow Springs Rd\nWillow Springs, IL 60480\nGoogle Maps"
  },
  {
    "category": "Urban Places",
    "placeName": "Parc du Mont-Bellevue",
    "link": "https://darksky.org/places/parc-du-mont-bellevue-urban-night-sky-place/",
    "coords": "45.384407,-71.908385",
    "mapsLink": "https://goo.gl/maps/c9xZqkwY4KjSxBYz5",
    "address": "1440 Brebeuf Street\nSherbrooke, Québec J1H 3G2\nGoogle Maps"
  },
  {
    "category": "Parks",
    "placeName": "Parc national du Mont-Tremblant",
    "link": "https://darksky.org/places/parc-national-du-mont-tremblant/",
    "coords": "46.41494,-74.6062276",
    "mapsLink": null,
    "address": ""
  },
  {
    "category": "Communities",
    "placeName": "Pellworm Star Island",
    "link": "https://darksky.org/places/pellworm-star-island-dark-sky-community/",
    "coords": "54.5087615,8.1503265",
    "mapsLink": "https://goo.gl/maps/oj3iE8YzPf6FZoBS7",
    "address": "Kur- und Tourismus Service Pellworm\nUthlandestraße 2\n25849 Pellworm, Germany\nGoogle Maps"
  },
  {
    "category": "Parks",
    "placeName": "Petrified Forest National Park",
    "link": "https://darksky.org/places/petrified-forest-national-park-dark-sky-park/",
    "coords": "34.9830024,-110.4378394",
    "mapsLink": "https://goo.gl/maps/7or7f3xYxTHCV8F17",
    "address": "PO Box 2217\n1 Park Rd\nPetrified Forest, AZ 86028 USA\nGoogle Maps"
  },
  {
    "category": "Parks",
    "placeName": "Petrova Gora-Biljeg",
    "link": "https://darksky.org/places/petrova-gora-biljeg-dark-sky-park/",
    "coords": "45.2416587,15.7651897",
    "mapsLink": "https://goo.gl/maps/byoupJp47pSAyKS87",
    "address": "Petrova Gora\nRepublic of Croatia\nGoogle Maps"
  },
  {
    "category": "Reserves",
    "placeName": "Pic du Midi",
    "link": "https://darksky.org/places/pic-du-midi-dark-sky-reserve/",
    "coords": "42.9280144,0.0199274",
    "mapsLink": "https://goo.gl/maps/ntrVSq7PErV545UT6",
    "address": "Hautes-Pyrénées, France\nGoogle Maps"
  },
  {
    "category": "Parks",
    "placeName": "Pickett CCC Memorial State Park & Pogue Creek Canyon State Natural Area",
    "link": "https://darksky.org/places/pickett-memorial-and-pogue-creek-canyon-dark-sky-park/",
    "coords": "36.5521734,-84.7973308",
    "mapsLink": "https://goo.gl/maps/5nU3KBsa7c37JxFE9",
    "address": "Tennessee, USA\nGoogle Maps"
  },
  {
    "category": "Parks",
    "placeName": "Pipe Spring National Monument",
    "link": "https://darksky.org/places/pipe-spring-national-monument-dark-sky-park/",
    "coords": "36.8625334,-112.7374633",
    "mapsLink": "https://goo.gl/maps/3J4vg19gxdW6umCe8",
    "address": "406 Pipe Springs Road\nFredonia, AZ 86022 USA\nGoogle Maps"
  },
  {
    "category": "Parks",
    "placeName": "Pisgah Astronomical Research Institute",
    "link": "https://darksky.org/places/pisgah-astronomical-research-institute-dark-sky-park/",
    "coords": "35.1989792,-82.8724423",
    "mapsLink": "https://goo.gl/maps/kVudKbbcpGmi8MBL6",
    "address": "1 PARI Drive\nRosman, NC 28772 US\nGoogle Maps"
  },
  {
    "category": "Sanctuaries",
    "placeName": "Pitcairn Islands",
    "link": "https://darksky.org/places/pitcairn-islands-dark-sky-sanctuary/",
    "coords": "-25.0696505,-130.10546",
    "mapsLink": "https://goo.gl/maps/qCNV5b5DPkfa5tgV7",
    "address": "Pitcairn Islands\nSouth Pacific\nGoogle Maps"
  },
  {
    "category": "Communities",
    "placeName": "Presteigne & Norton Dark Sky Community, Wales",
    "link": "https://darksky.org/places/presteigne-norton-dark-sky-community-wales/",
    "coords": "52.2729243,-3.0794272",
    "mapsLink": "https://maps.app.goo.gl/fD1hgvV74D51DjUD6",
    "address": "Presteigne & Norton Powys, Wales, United KingdomGoogle Maps"
  },
  {
    "category": "Parks",
    "placeName": "Prineville Reservoir State Park",
    "link": "https://darksky.org/places/prineville-reservoir-state-park-dark-sky-park/",
    "coords": "44.1320159,-120.7384259",
    "mapsLink": "https://goo.gl/maps/XC7cMMCSRWDG9bmu8",
    "address": "19020 SE Parkland Drive\nPrineville, OR 97754 USA\nGoogle Maps"
  },
  {
    "category": "Parks",
    "placeName": "Quetico Provincial Park",
    "link": "https://darksky.org/places/quetico-provincial-park-dark-sky-park/",
    "coords": "48.6749646,-91.1362926",
    "mapsLink": "https://goo.gl/maps/MTFtU7vo6HXHqa6E8",
    "address": "ON-11 \nAtikokan, ON P0T 1C0\nCanada\nGoogle Maps"
  },
  {
    "category": "Sanctuaries",
    "placeName": "Rainbow Bridge National Monument",
    "link": "https://darksky.org/places/rainbow-bridge-national-monument-dark-sky-sanctuary/",
    "coords": "37.0774593,-110.9745221",
    "mapsLink": "https://goo.gl/maps/VhhCxMFzwAjFGMzAA",
    "address": "PO Box 1507\n691 Scenic View Dr\nPage, AZ 86040 USA\nGoogle Maps"
  },
  {
    "category": "Parks",
    "placeName": "Ramon Crater Nature Reserve",
    "link": "https://darksky.org/places/ramon-crater-nature-reserve-dark-sky-park/",
    "coords": "30.5932416,34.1743055",
    "mapsLink": "https://goo.gl/maps/SDAo9kJfWAmwPbB38",
    "address": "Negev, Israel\nGoogle Maps"
  },
  {
    "category": "Parks",
    "placeName": "Rappahannock County Park",
    "link": "https://darksky.org/places/rappahannock-county-park-dark-sky-park/",
    "coords": "38.7104136,-78.1525775",
    "mapsLink": "https://goo.gl/maps/bh9VEnS1FuGv5UGT8",
    "address": "7 Park Lane\nWashington, Virginia 22747\nUSA\nGoogle Maps"
  },
  {
    "category": "Reserves",
    "placeName": "Regional Natural Park of Millevaches in Limousin",
    "link": "https://darksky.org/places/regional-natural-park-of-millevaches-dark-sky-reserve/",
    "coords": "45.6531807,2.0490896",
    "mapsLink": "https://goo.gl/maps/aR7jzT3cJPhHXy5v5",
    "address": "7, route d’Aubusson\n19290 Millevaches, France\nGoogle Maps"
  },
  {
    "category": "Reserves",
    "placeName": "Regional Natural Park of Vercors",
    "link": "https://darksky.org/places/regional-natural-park-of-vercors/",
    "coords": "45.1364962,5.5491892",
    "mapsLink": "https://maps.app.goo.gl/kANhnMpZqgz471676",
    "address": "255 Chemin des Fusillés38250 Lans-en-VercorsFranceGoogle Maps"
  },
  {
    "category": "Reserves",
    "placeName": "Rhön",
    "link": "https://darksky.org/places/rhon-dark-sky-reserve/",
    "coords": "50.6734096,10.1101126",
    "mapsLink": "https://goo.gl/maps/cHvKMV6ZEVRhZBmWA",
    "address": "Biosphärenreservat Rhön, Germany\nGoogle Maps"
  },
  {
    "category": "Communities",
    "placeName": "Ridgway, Colorado",
    "link": "https://darksky.org/places/ridgway-colorado-dark-sky-community/",
    "coords": "38.1584525,-107.752251",
    "mapsLink": "https://goo.gl/maps/L6qVgWpy4uHAzQcM7",
    "address": "Ridgway, Colorado\nU.S.\nGoogle Maps"
  },
  {
    "category": "Reserves",
    "placeName": "River Murray",
    "link": "https://darksky.org/places/river-murray-dark-sky-reserve/",
    "coords": "-35.4092603,143.762027",
    "mapsLink": "https://goo.gl/maps/UPojik7uHjvesoR46",
    "address": "PO Box 10\nCambrai, SA 5353\nAustralia\nGoogle Maps"
  },
  {
    "category": "Parks",
    "placeName": "Rockport State Park",
    "link": "https://darksky.org/places/rockport-state-park-dark-sky-park/",
    "coords": "40.7706546,-111.4050916",
    "mapsLink": "https://goo.gl/maps/nVwsoU51NmGB5U1RA",
    "address": "9040 UT-302, Peoa, UT 84061\nUSA\nGoogle Maps"
  },
  {
    "category": "Urban Places",
    "placeName": "Saguaro National Park",
    "link": "https://darksky.org/places/saguaro-national-park/",
    "coords": "32.1802357,-110.7362407",
    "mapsLink": "https://www.google.com/maps/place/3693+S+Old+Spanish+Trail,+Tucson,+AZ+85730/@32.1802367,-110.7363192,17z/data=!3m1!4b1!4m6!3m5!1s0x86d667a1d8e14f1f:0x292fe937aefbdf8f!8m2!3d32.1802367!4d-110.7363192!16s%2Fg%2F11bw3_gpr_?entry=ttu",
    "address": "Saguaro National Park3693 S Old Spanish TrailTucson, AZ 85730Google Maps"
  },
  {
    "category": "Parks",
    "placeName": "Salinas Pueblo Missions National Monument",
    "link": "https://darksky.org/places/salinas-pueblo-missions-national-monument-dark-sky-park/",
    "coords": "34.258917,-106.0940091",
    "mapsLink": "https://goo.gl/maps/b6mydUPnyBcEvAYJ8",
    "address": "Mountainair, New Mexico, U.S.\nGoogle Maps"
  },
  {
    "category": "Communities",
    "placeName": "Sark, Channel Islands",
    "link": "https://darksky.org/places/sark-dark-sky-community/",
    "coords": "49.4254033,-2.4511524",
    "mapsLink": "https://goo.gl/maps/rsgv7xLUqzQNaAwU8",
    "address": "Channel Islands, UK\nGoogle Maps"
  },
  {
    "category": "Communities",
    "placeName": "Sedona, Arizona",
    "link": "https://darksky.org/places/sedona-arizona-dark-sky-community/",
    "coords": "34.8543784,-111.7951384",
    "mapsLink": "https://goo.gl/maps/AhyR66qtAQaRkgbt7",
    "address": "Arizona, USA\nGoogle Maps"
  },
  {
    "category": "Urban Places",
    "placeName": "Shield Ranch Barton Creek",
    "link": "https://darksky.org/places/shield-ranch-barton-creek/",
    "coords": "30.2959878,-98.0076899",
    "mapsLink": "https://maps.app.goo.gl/pqNMNuR8VZsQyLtq7",
    "address": "Shield Ranch Barton Creek16037 Hamilton Pool Rd Austin, TX 78738Google Maps"
  },
  {
    "category": "Parks",
    "placeName": "Sinks Canyon State Park",
    "link": "https://darksky.org/places/sinks-canyon-state-park/",
    "coords": "42.7575527,-108.8458908",
    "mapsLink": "https://maps.app.goo.gl/pJbaTvkGNxzPHWU26",
    "address": "3079 Sinks Canyon Rd, Lander, WY 82520, USGoogle Maps"
  },
  {
    "category": "Parks",
    "placeName": "Sky Meadows State Park",
    "link": "https://darksky.org/places/sky-meadows-state-park-dark-sky-park/",
    "coords": "38.9896007,-77.9813103",
    "mapsLink": "https://goo.gl/maps/GWjmwNAQjx1aZGJc6",
    "address": "11012 Edmonds Lane\nDelaplane, VA 20144 USA\nGoogle Maps"
  },
  {
    "category": "Communities",
    "placeName": "Sopotnia Wielka",
    "link": "https://darksky.org/places/sopotnia-wielka/",
    "coords": "49.5928042,19.1761217",
    "mapsLink": "https://maps.app.goo.gl/yrr2BTZmCP7qFhfm6",
    "address": "Sopotnia Wielka, Jeleśnia, PolandGoogle Maps"
  },
  {
    "category": "Parks",
    "placeName": "South Llano River State Park",
    "link": "https://darksky.org/places/south-llano-river-state-park-dark-sky-park/",
    "coords": "30.4457856,-99.8042166",
    "mapsLink": "https://goo.gl/maps/4CSVgeBD94tEB9Jb9",
    "address": "1927 Park Road 73\nJunction, TX 76849 USA\nGoogle Maps"
  },
  {
    "category": "Communities",
    "placeName": "Spiekeroog Star Island",
    "link": "https://darksky.org/places/spiekeroog-star-island-dark-sky-community/",
    "coords": "53.7655605,7.4110089",
    "mapsLink": "https://goo.gl/maps/Ew6BBhTKnF6YSJc7A",
    "address": "Gemeinde Spiekeroog\nWesterloog 2\n26474 Spiekeroog, Germany\nGoogle Maps"
  },
  {
    "category": "Communities",
    "placeName": "Springdale, Utah",
    "link": "https://darksky.org/places/springdale-utah-dark-sky-community/",
    "coords": "37.1950878,-112.9978843",
    "mapsLink": "https://goo.gl/maps/2Tq1Dz4w7QG8Z9yq8",
    "address": "118 Lion Boulevard\nSpringdale, UT 84767\nGoogle Maps"
  },
  {
    "category": "Urban Places",
    "placeName": "Stacy Park",
    "link": "https://darksky.org/places/stacy-park-urban-night-sky-place/",
    "coords": "38.669129,-90.390786",
    "mapsLink": "https://goo.gl/maps/DC1oEN9WRadgEd6g7",
    "address": "1140 Dielman Rd\nOlivette MO, 63132\nGoogle Maps"
  },
  {
    "category": "Parks",
    "placeName": "Staunton River State Park",
    "link": "https://darksky.org/places/staunton-river-state-park-dark-sky-park/",
    "coords": "36.6981267,-78.6768109",
    "mapsLink": "https://goo.gl/maps/kdhNbkkguQ6H4Knb7",
    "address": "Scottsburg, Virginia\nGoogle Maps"
  },
  {
    "category": "Parks",
    "placeName": "Steinaker State Park",
    "link": "https://darksky.org/places/steinaker-state-park-dark-sky-park/",
    "coords": "40.5053773,-109.5388644",
    "mapsLink": "https://goo.gl/maps/a7CgMLq6FVHkCFD38",
    "address": "4335 N. Highway 191\nVernal, UT 84078 USA\nGoogle Maps"
  },
  {
    "category": "Parks",
    "placeName": "Stephen C. Foster State Park",
    "link": "https://darksky.org/places/stephen-c-foster-state-park-dark-sky-park/",
    "coords": "30.8265888,-82.3722013",
    "mapsLink": "https://goo.gl/maps/rArKXPoqWCdmWfTt5",
    "address": "17515 Hwy. 177\nFargo, GA 31631 USA\nGoogle Maps"
  },
  {
    "category": "Sanctuaries",
    "placeName": "Stewart Island / Rakiura",
    "link": "https://darksky.org/places/stewart-island-rakiura-dark-sky-sanctuary/",
    "coords": "-46.9790993,166.5193658",
    "mapsLink": "https://goo.gl/maps/kwUG12Wa16Cdv7PN7",
    "address": "Stewart Island, New Zealand\nGoogle Maps"
  },
  {
    "category": "Communities",
    "placeName": "The City of Moab",
    "link": "https://darksky.org/places/the-city-of-moab/",
    "coords": "38.5743979,-109.5514186",
    "mapsLink": "https://maps.app.goo.gl/mnzPafHwKygGapJT7",
    "address": "217 East Center StreetMoab, UT 84532Google Maps"
  },
  {
    "category": "Sanctuaries",
    "placeName": "The Jump-Up",
    "link": "https://darksky.org/places/the-jump-up-dark-sky-sanctuary/",
    "coords": "-22.4791197,143.1723904",
    "mapsLink": "https://goo.gl/maps/7eQxcKYYJbe6jRS28",
    "address": "Lot 1 Dinosaur Drive\nPO Box 408\nWinton Qld 4735\nAustralia\nGoogle Maps"
  },
  {
    "category": "Communities",
    "placeName": "Thunder Mountain Pootsee Nightsky",
    "link": "https://darksky.org/places/kaibab-paiute-indian-reservation-dark-sky-community/",
    "coords": "36.9156979,-112.664592",
    "mapsLink": "https://goo.gl/maps/xK4aspbytHsLkS3T8",
    "address": "Arizona, USA\nGoogle Maps"
  },
  {
    "category": "Urban Places",
    "placeName": "Timpanogos Cave National Monument",
    "link": "https://darksky.org/places/timpanogos-cave-national-monument-urban-night-sky-place/",
    "coords": "40.4439287,-111.7167357",
    "mapsLink": "https://goo.gl/maps/naWMjBbNqKRhABp58",
    "address": "2038 W. Alpine Loop Road\nAmerican Fork, UT 84003 USA\nGoogle Maps"
  },
  {
    "category": "Parks",
    "placeName": "Tomintoul and Glenlivet – Cairngorms",
    "link": "https://darksky.org/places/tomintoul-glenlivet-cairngorms-dark-sky-park/",
    "coords": "57.3390991,-3.3471816",
    "mapsLink": "https://goo.gl/maps/PhcR912CwG5M32ie9",
    "address": "Tomintoul and Glenlivet\nMoray, Scotland\nGoogle Maps"
  },
  {
    "category": "Parks",
    "placeName": "Tonto National Monument",
    "link": "https://darksky.org/places/tonto-national-monument-dark-sky-park/",
    "coords": "33.6484286,-111.1135633",
    "mapsLink": "https://goo.gl/maps/HJkcyUDxEyk7P6rFA",
    "address": "26260 N AZ Hwy 188 \nRoosevelt, AZ 85545\nUSA\nGoogle Maps"
  },
  {
    "category": "Parks",
    "placeName": "Top of the Pines",
    "link": "https://darksky.org/places/top-of-the-pines-dark-sky-park/",
    "coords": "38.1114734,-107.8045618",
    "mapsLink": "https://goo.gl/maps/mLZUQrP6AKAuj1t49",
    "address": "1035 Highland Dr\nRidgway, CO 81432\nGoogle Maps"
  },
  {
    "category": "Communities",
    "placeName": "Torrey, Utah",
    "link": "https://darksky.org/places/torrey-utah-dark-sky-community/",
    "coords": "38.3033617,-111.4407395",
    "mapsLink": "https://goo.gl/maps/rk6sZwWdkCFHkcLA8",
    "address": "100 North 75 East\nTorrey, UT 84775 USA\nGoogle Maps"
  },
  {
    "category": "Communities",
    "placeName": "Town of Castle Valley, Utah",
    "link": "https://darksky.org/places/castle_valley/",
    "coords": "38.6362025,-109.3995881",
    "mapsLink": "https://maps.app.goo.gl/3vv8GnV1LDjGTx9J6",
    "address": "Town of Castle ValleyHC 64 Box 2705Castle Valley, Utah, 84532Google Maps"
  },
  {
    "category": "Communities",
    "placeName": "Town of Paonia",
    "link": "https://darksky.org/places/paonia-colorado/",
    "coords": "38.8700041,-107.5925749",
    "mapsLink": "https://maps.app.goo.gl/dFSgw7wniQnmynRZA",
    "address": "Paonia Town Hall700 4th StPaonia, CO 81428Google Maps"
  },
  {
    "category": "Communities",
    "placeName": "Tubac, Arizona",
    "link": "https://darksky.org/places/tubac/",
    "coords": "31.6295734,-111.0977355",
    "mapsLink": "https://maps.app.goo.gl/Sf4LZAzUfc1eXiE5A",
    "address": "Tubac Community Center Foundation50 Bridge RdTubac, AZ 85646 Google Maps"
  },
  {
    "category": "Parks",
    "placeName": "Tumacácori National Historical Park",
    "link": "https://darksky.org/places/tumacacori-national-historical-park-dark-sky-park/",
    "coords": "31.567784,-111.0613496",
    "mapsLink": "https://goo.gl/maps/SM9jCSx33s6JBrmN6",
    "address": "1891 E. Frontage Road\nTumacacori, AZ 85640 USA\nGoogle Maps"
  },
  {
    "category": "Parks",
    "placeName": "UBarU Camp and Retreat Center",
    "link": "https://darksky.org/places/ubaru-camp-and-retreat-center-dark-sky-park/",
    "coords": "30.1884898,-99.2744282",
    "mapsLink": "https://goo.gl/maps/BfSZL1bWCuuXPnBB6",
    "address": "277 UBarU Drive\nMountain Home, TX 78058 USA\nGoogle Maps"
  },
  {
    "category": "Urban Places",
    "placeName": "Valle de Oro National Wildlife Refuge",
    "link": "https://darksky.org/places/valle-de-oro-national-wildlife-refuge-urban-night-sky-place/",
    "coords": "34.9798042,-106.6822401",
    "mapsLink": "https://goo.gl/maps/YxJVJfUZfTQAywvS9",
    "address": " 7851 2nd St SW\nAlbuquerque, NM 87105 USA\nGoogle Maps"
  },
  {
    "category": "Parks",
    "placeName": "Valles Caldera National Preserve",
    "link": "https://darksky.org/places/valles-caldera-national-preserve-dark-sky-park/",
    "coords": "35.8321046,-106.4973057",
    "mapsLink": "https://goo.gl/maps/1p5KwnBAa7AJDieb6",
    "address": "39201 NM-4\nJemez Springs, NM 87025\nUSA\nGoogle Maps"
  },
  {
    "category": "Parks",
    "placeName": "Voyageurs National Park",
    "link": "https://darksky.org/places/voyageurs-national-park-dark-sky-park/",
    "coords": "48.4928627,-94.1036621",
    "mapsLink": "https://goo.gl/maps/fk1GdHgJq5egK3QK9",
    "address": "Voyageurs National Park Headquarters\n360 Hwy 11 East\nInternational Falls, MN 56649\nUSA\nGoogle Maps"
  },
  {
    "category": "Parks",
    "placeName": "Vrani kamen",
    "link": "https://darksky.org/places/vrani-kamen-dark-sky-park/",
    "coords": "45.600506,17.3786965",
    "mapsLink": "https://goo.gl/maps/E6yVn2BMN7JGDNuR6",
    "address": "Trg kralja Tomislava 12\n43500 Daruvar\nCroatia\nGoogle Maps"
  },
  {
    "category": "Parks",
    "placeName": "Wai-Iti",
    "link": "https://darksky.org/places/wai-iti-dark-sky-park/",
    "coords": "-41.4126409,172.9692954",
    "mapsLink": "https://goo.gl/maps/2SUTwMdTJcVTMcjM9",
    "address": "437 Wakefield-Kohatu Highway\nWai-Iti 7095\nNew Zealand\nGoogle Maps"
  },
  {
    "category": "Reserves",
    "placeName": "Wairarapa Dark Sky Reserve",
    "link": "https://darksky.org/places/wairarapa-dark-sky-reserve/",
    "coords": "-40.5576432,175.9351205",
    "mapsLink": "https://goo.gl/maps/QExkG1aYpYC5uPDbA",
    "address": "Wairarapa Region\nNew Zealand\nGoogle Maps"
  },
  {
    "category": "Parks",
    "placeName": "Warrumbungle Dark Sky Park",
    "link": "https://darksky.org/places/warrumbungle-dark-sky-park/",
    "coords": "-31.281086,149.013454",
    "mapsLink": "https://goo.gl/maps/VbrmwRpdCnWjApAG9",
    "address": "John Renshaw Parkway\nCoonabarabran, New South Wales\nAustralia\nGoogle Maps"
  },
  {
    "category": "Parks",
    "placeName": "Waterton-Glacier International Peace Park",
    "link": "https://darksky.org/places/waterton-glacier-international-peace-park-dark-sky-park/",
    "coords": "49.0359348,-113.9779828",
    "mapsLink": "https://goo.gl/maps/G7m2joBwMNrdEgyB7",
    "address": "Montana, U.S., and Alberta, Canada\nGoogle Maps"
  },
  {
    "category": "Parks",
    "placeName": "Watoga State Park",
    "link": "https://darksky.org/places/watoga-state-park-dark-sky-park/",
    "coords": "38.1165056,-80.1273891",
    "mapsLink": "https://goo.gl/maps/H8ZzUnC1rCAcy3Bz6",
    "address": "4800 Watoga Park Rd\nMarlinton, WV 24954\nGoogle Maps"
  },
  {
    "category": "Parks",
    "placeName": "West Penwith",
    "link": "https://darksky.org/places/west-penwith-dark-sky-park/",
    "coords": "50.117269,-5.7999527",
    "mapsLink": "https://goo.gl/maps/sspQkoE8smeKANfv5",
    "address": "West Penwith, Cornwall\nEngland, United Kingdom\nGoogle Maps"
  },
  {
    "category": "Communities",
    "placeName": "Westcliffe and Silver Cliff, Colorado",
    "link": "https://darksky.org/places/westcliffe-and-silver-cliff-dark-sky-community/",
    "coords": "38.135858,-105.458349",
    "mapsLink": "https://goo.gl/maps/ibuwW2cQ4VA664wt9",
    "address": "Custer County,\nColorado, USA\nGoogle Maps"
  },
  {
    "category": "Reserves",
    "placeName": "Westhavelland",
    "link": "https://darksky.org/places/westhavelland-dark-sky-reserve/",
    "coords": "52.502373,12.330392",
    "mapsLink": "https://goo.gl/maps/oMPE3hb5ji7zpew78",
    "address": "Förderverein Sternenpark Westhavelland\nAm Neubau 4 OT Gülpe\n14715 Havelaue\nGermany\nGoogle Maps"
  },
  {
    "category": "Communities",
    "placeName": "Wimberley Valley, Texas",
    "link": "https://darksky.org/places/wimberley-valley-texas-dark-sky-community/",
    "coords": "30.025412,-98.1117225",
    "mapsLink": "https://goo.gl/maps/bqBSCSCDsHhLa11u8",
    "address": "Wimberley and Woodcreek\nTexas, U.S.\nGoogle Maps"
  },
  {
    "category": "Parks",
    "placeName": "Winklmoosalm",
    "link": "https://darksky.org/places/winklmoosalm-dark-sky-park/",
    "coords": "47.6571908,12.5431781",
    "mapsLink": "https://goo.gl/maps/uDchWk7vdix1ofHA9",
    "address": "Reit im Winkl\nBavaria, Germany\nGoogle Maps"
  },
  {
    "category": "Communities",
    "placeName": "Xichong, Shenzen",
    "link": "https://darksky.org/places/xichong-shenzhen-dark-sky-community/",
    "coords": "22.476688,114.529645",
    "mapsLink": "https://goo.gl/maps/FfP3ThmbCZemeKK68",
    "address": "Xichong Community\nShenzhen\nGuangdong, China\nGoogle Maps"
  },
  {
    "category": "Parks",
    "placeName": "Yeongyang Firefly Eco Park",
    "link": "https://darksky.org/places/yeongyang-firefly-eco-park-dark-sky-park/",
    "coords": "36.8299861,129.2597243",
    "mapsLink": "https://goo.gl/maps/ynwxAXU5E332MwGx6",
    "address": "Banditbulri-Ro 129\nSubi-Myun\nYeongyang-Gun\nGyeongSangBuk-Do\nRepublic of Korea\nGoogle Maps"
  },
  {
    "category": "Sanctuaries",
    "placeName": "Ynys Enlli – Bardsey Island",
    "link": "https://darksky.org/places/ynys-enlli-bardsey-island-dark-sky-sanctuary/",
    "coords": "52.7568721,-4.8015375",
    "mapsLink": null,
    "address": null
  },
  {
    "category": "Reserves",
    "placeName": "Yorkshire Dales National Park",
    "link": "https://darksky.org/places/yorkshire-dales-national-park-dark-sky-reserve/",
    "coords": "54.2631864,-2.2007922",
    "mapsLink": "https://goo.gl/maps/cFYKT61yt5NZgDhE9",
    "address": "Bainbridge\nLeyburn DL8 3EL\nUnited Kingdom\nGoogle Maps"
  },
  {
    "category": "Parks",
    "placeName": "Zion National Park",
    "link": "https://darksky.org/places/zion-national-park-dark-sky-park/",
    "coords": "37.3202632,-113.7025414",
    "mapsLink": "https://goo.gl/maps/HMumEmiBsjfHiB7C7",
    "address": "State Highway Route 9\nSpringdale, UT 84767 USA\nGoogle Maps"
  },
  {
    "category": "Parks",
    "placeName": "Zselic National Landscape Protection Area",
    "link": "https://darksky.org/places/zselic-national-landscape-protection-area-dark-sky-park/",
    "coords": "46.2583236,17.7653227",
    "mapsLink": "https://goo.gl/maps/mfRiKxboH3oRUGiD7",
    "address": "Hungary\nGoogle Maps"
  }
]