[
    {
      "category": "Sanctuaries",
      "placeName": "!Ae!Hai Kalahari Heritage Park",
      "link": "https://darksky.org/places/aehai-kalahari-heritage-park-dark-sky-sanctuary/"
    },
    {
      "category": "Parks",
      "placeName": "Aenos National Park",
      "link": "https://darksky.org/places/aenos-national-park-dark-sky-park/"
    },
    {
      "category": "Parks",
      "placeName": "Albanyà",
      "link": "https://darksky.org/places/albanya-dark-sky-park/"
    },
    {
      "category": "Reserves",
      "placeName": "Alpes Azur Mercantour",
      "link": "https://darksky.org/places/alpes-azur-mercantour-dark-sky-reserve/"
    },
    {
      "category": "Parks",
      "placeName": "AMC Maine Woods",
      "link": "https://darksky.org/places/amc-maine-woods-dark-sky-park/"
    },
    {
      "category": "Parks",
      "placeName": "Antelope Island State Park",
      "link": "https://darksky.org/places/antelope-island-dark-sky-park/"
    },
    {
      "category": "Parks",
      "placeName": "Anza-Borrego Desert State Park",
      "link": "https://darksky.org/places/anza-borrego-dark-sky-park/"
    },
    {
      "category": "Reserves",
      "placeName": "Aoraki Mackenzie",
      "link": "https://darksky.org/places/aoraki-mackenzie-dark-sky-reserve/"
    },
    {
      "category": "Sanctuaries",
      "placeName": "Aotea Great Barrier Island",
      "link": "https://darksky.org/places/aotea-great-barrier-island-dark-sky-sanctuary/"
    },
    {
      "category": "Parks",
      "placeName": "Arches National Park",
      "link": "https://darksky.org/places/arches-national-park-dark-sky-park/"
    },
    {
      "category": "Sanctuaries",
      "placeName": "Arkaroola Wilderness Sanctuary",
      "link": "https://darksky.org/places/arkaroola-wilderness-sanctuary-dark-sky-sanctuary/"
    },
    {
      "category": "Reserves",
      "placeName": "Bannau Brycheiniog National Park (Brecon Beacons)",
      "link": "https://darksky.org/places/brecon-beacons-national-park-dark-sky-reserve/"
    },
    {
      "category": "Sanctuaries",
      "placeName": "Beaver Island State Wildlife Research Area",
      "link": "https://darksky.org/places/beaver-island-state-wildlife-research-area/"
    },
    {
      "category": "Communities",
      "placeName": "Bee Cave",
      "link": "https://darksky.org/places/bee-cave-dark-sky-community/"
    },
    {
      "category": "Communities",
      "placeName": "Beverly Shores, Indiana",
      "link": "https://darksky.org/places/beverly-shores-indiana-dark-sky-community/"
    },
    {
      "category": "Parks",
      "placeName": "Big Bend National Park",
      "link": "https://darksky.org/places/big-bend-national-park-dark-sky-park/"
    },
    {
      "category": "Parks",
      "placeName": "Big Bend Ranch State Park",
      "link": "https://darksky.org/places/big-bend-ranch-dark-sky-park/"
    },
    {
      "category": "Parks",
      "placeName": "Big Cypress National Preserve",
      "link": "https://darksky.org/places/big-cypress-dark-sky-park/"
    },
    {
      "category": "Communities",
      "placeName": "Big Park / Village of Oak Creek, Arizona",
      "link": "https://darksky.org/places/big-park-village-of-oak-creek-dark-sky-community/"
    },
    {
      "category": "Communities",
      "placeName": "Bisei Town, Ibara City",
      "link": "https://darksky.org/places/bisei-town-ibara-city-dark-sky-community/"
    },
    {
      "category": "Parks",
      "placeName": "Black Canyon of the Gunnison National Park",
      "link": "https://darksky.org/places/black-canyon-of-the-gunnison-national-park-dark-sky-park/"
    },
    {
      "category": "Sanctuaries",
      "placeName": "Black Gap Wildlife Management Area",
      "link": "https://darksky.org/places/black-gap-dark-sky-sanctuary/"
    },
    {
      "category": "Communities",
      "placeName": "Blanco, Texas",
      "link": "https://darksky.org/places/city-of-blanco-texas-dark-sky-community/"
    },
    {
      "category": "Parks",
      "placeName": "Bodmin Moor Dark Sky Landscape",
      "link": "https://darksky.org/places/bodmin-moor-dark-sky-park/"
    },
    {
      "category": "Communities",
      "placeName": "Bon Accord, Alberta",
      "link": "https://darksky.org/places/bon-accord-dark-sky-community/"
    },
    {
      "category": "Communities",
      "placeName": "Borrego Springs, California",
      "link": "https://darksky.org/places/borrego-springs-dark-sky-community/"
    },
    {
      "category": "Sanctuaries",
      "placeName": "Boundary Waters Canoe Area Wilderness",
      "link": "https://darksky.org/places/boundary-waters-canoe-area-dark-sky-sanctuary/"
    },
    {
      "category": "Parks",
      "placeName": "Bruneau Dunes State Park",
      "link": "https://darksky.org/places/bruneau-dunes-state-park/"
    },
    {
      "category": "Parks",
      "placeName": "Bryce Canyon National Park",
      "link": "https://darksky.org/places/bryce-canyon-national-park-dark-sky-park/"
    },
    {
      "category": "Parks",
      "placeName": "Buffalo National River",
      "link": "https://darksky.org/places/buffalo-national-river-dark-sky-park/"
    },
    {
      "category": "Parks",
      "placeName": "Bükk National Park",
      "link": "https://darksky.org/places/bukk-national-park-dark-sky-park/"
    },
    {
      "category": "Communities",
      "placeName": "Camp Verde, Arizona",
      "link": "https://darksky.org/places/camp-verde-dark-sky-park/"
    },
    {
      "category": "Parks",
      "placeName": "Canyonlands National Park",
      "link": "https://darksky.org/places/canyonlands-national-park-dark-sky-park/"
    },
    {
      "category": "Parks",
      "placeName": "Cape Lookout National Seashore",
      "link": "https://darksky.org/places/cape-lookout-national-seashore-dark-sky-park/"
    },
    {
      "category": "Parks",
      "placeName": "Capitol Reef National Park",
      "link": "https://darksky.org/places/capitol-reef-national-park-dark-sky-park/"
    },
    {
      "category": "Parks",
      "placeName": "Capulin Volcano National Monument",
      "link": "https://darksky.org/places/capulin-volcano-national-monument-dark-sky-park/"
    },
    {
      "category": "Communities",
      "placeName": "Carrickalinga",
      "link": "https://darksky.org/places/carrickalinga/"
    },
    {
      "category": "Parks",
      "placeName": "Cedar Breaks National Monument",
      "link": "https://darksky.org/places/cedar-breaks-national-monument-dark-sky-park/"
    },
    {
      "category": "Reserves",
      "placeName": "Central Idaho",
      "link": "https://darksky.org/places/central-idaho-dark-sky-reserve/"
    },
    {
      "category": "Reserves",
      "placeName": "Cévennes National Park",
      "link": "https://darksky.org/places/cevennes-dark-sky-reserve/"
    },
    {
      "category": "Parks",
      "placeName": "Chaco Culture National Historical Park",
      "link": "https://darksky.org/places/chaco-culture-national-historic-park-dark-sky-park/"
    },
    {
      "category": "Parks",
      "placeName": "Cherry Springs State Park",
      "link": "https://darksky.org/places/cherry-springs-state-park-dark-sky-park/"
    },
    {
      "category": "Parks",
      "placeName": "Chiricahua National Monument",
      "link": "https://darksky.org/places/chiricahua-national-monument-dark-sky-park/"
    },
    {
      "category": "Parks",
      "placeName": "City of Rocks National Reserve",
      "link": "https://darksky.org/places/city-of-rocks-dark-sky-park/"
    },
    {
      "category": "Parks",
      "placeName": "Clayton Lake State Park",
      "link": "https://darksky.org/places/clayton-lake-state-park-dark-sky-park/"
    },
    {
      "category": "Communities",
      "placeName": "Coll",
      "link": "https://darksky.org/places/coll-dark-sky-community/"
    },
    {
      "category": "Parks",
      "placeName": "Copper Breaks State Park",
      "link": "https://darksky.org/places/copper-breaks-state-park-dark-sky-park/"
    },
    {
      "category": "Sanctuaries",
      "placeName": "Cosmic Campground",
      "link": "https://darksky.org/places/cosmic-campground-dark-sky-place/"
    },
    {
      "category": "Communities",
      "placeName": "Cottonwood, Arizona",
      "link": "https://darksky.org/places/cottonwood-arizona-dark-sky-community/"
    },
    {
      "category": "Reserves",
      "placeName": "Cranborne Chase",
      "link": "https://darksky.org/places/cranborne-chase-dark-sky-reserve/"
    },
    {
      "category": "Parks",
      "placeName": "Craters Of The Moon National Monument",
      "link": "https://darksky.org/places/craters-of-the-moon-national-monument-dark-sky-park/"
    },
    {
      "category": "Communities",
      "placeName": "Crestone, Colorado",
      "link": "https://darksky.org/places/crestone-colorado-dark-sky-community/"
    },
    {
      "category": "Parks",
      "placeName": "Curecanti National Recreation Area",
      "link": "https://darksky.org/places/curecanti-national-recreation-area-dark-sky-park/"
    },
    {
      "category": "Parks",
      "placeName": "Dark Sky Park Bulbjerg",
      "link": "https://darksky.org/places/dark-sky-park-bulbjerg/"
    },
    {
      "category": "Parks",
      "placeName": "De Boschplaat",
      "link": "https://darksky.org/places/de-boschplaat-dark-sky-park/"
    },
    {
      "category": "Parks",
      "placeName": "Dead Horse Point State Park",
      "link": "https://darksky.org/places/dead-horse-point-state-park-dark-sky-park/"
    },
    {
      "category": "Parks",
      "placeName": "Death Valley National Park",
      "link": "https://darksky.org/places/death-valley-national-park-dark-sky-park/"
    },
    {
      "category": "Parks",
      "placeName": "Desengano State Park",
      "link": "https://darksky.org/places/desengano-dark-sky-park/"
    },
    {
      "category": "Sanctuaries",
      "placeName": "Devils River State Natural Area — Del Norte Unit",
      "link": "https://darksky.org/places/devils-river-state-natural-area-dark-sky-sanctuary/"
    },
    {
      "category": "Parks",
      "placeName": "Dinosaur National Monument",
      "link": "https://darksky.org/places/dinosaur-national-monument-dark-sky-park/"
    },
    {
      "category": "Parks",
      "placeName": "Dr. T.K. Lawless County Park",
      "link": "https://darksky.org/places/dr-lawless-dark-sky-park/"
    },
    {
      "category": "Communities",
      "placeName": "Dripping Springs, Texas",
      "link": "https://darksky.org/places/dripping-springs-dark-sky-community/"
    },
    {
      "category": "Parks",
      "placeName": "East Canyon State Park",
      "link": "https://darksky.org/places/east-canyon-state-park-dark-sky-park/"
    },
    {
      "category": "Parks",
      "placeName": "Eifel National Park",
      "link": "https://darksky.org/places/eifel-national-park-dark-sky-park/"
    },
    {
      "category": "Communities",
      "placeName": "Eiweiler Star Village",
      "link": "https://darksky.org/places/eiweiler-star-village/"
    },
    {
      "category": "Parks",
      "placeName": "El Morro National Monument",
      "link": "https://darksky.org/places/el-morro-national-monument-dark-sky-park/"
    },
    {
      "category": "Parks",
      "placeName": "Elan Valley Estate",
      "link": "https://darksky.org/places/elan-valley-dark-sky-park/"
    },
    {
      "category": "Parks",
      "placeName": "Enchanted Rock State Natural Area",
      "link": "https://darksky.org/places/enchanted-rock-state-natural-area-dark-sky-park/"
    },
    {
      "category": "Reserves",
      "placeName": "Eryri National Park (Snowdonia)",
      "link": "https://darksky.org/places/snowdonia-national-park-dark-sky-reserve/"
    },
    {
      "category": "Reserves",
      "placeName": "Exmoor National Park",
      "link": "https://darksky.org/places/exmoor-national-park-dark-sky-place/"
    },
    {
      "category": "Parks",
      "placeName": "Flagstaff Area National Monuments",
      "link": "https://darksky.org/places/flagstaff-area-national-monuments-dark-sky-park/"
    },
    {
      "category": "Communities",
      "placeName": "Flagstaff, Arizona",
      "link": "https://darksky.org/places/flagstaff-arizona-dark-sky-community/"
    },
    {
      "category": "Parks",
      "placeName": "Florissant Fossil Beds National Monument",
      "link": "https://darksky.org/places/florissant-fossil-beds-national-monument-dark-sky-park/"
    },
    {
      "category": "Parks",
      "placeName": "Fort Union National Monument",
      "link": "https://darksky.org/places/fort-union-national-monument-dark-sky-park/"
    },
    {
      "category": "Communities",
      "placeName": "Fountain Hills, Arizona",
      "link": "https://darksky.org/places/fountain-hills-arizona-dark-sky-community/"
    },
    {
      "category": "Communities",
      "placeName": "Fredericksburg, Texas",
      "link": "https://darksky.org/places/fredericksburg-texas-dark-sky-community/"
    },
    {
      "category": "Parks",
      "placeName": "Fremont Indian State Park",
      "link": "https://darksky.org/places/fremont-indian-state-park-dark-sky-park/"
    },
    {
      "category": "Urban Places",
      "placeName": "Fry Family Park",
      "link": "https://darksky.org/places/fry-family-park-urban-night-sky-place/"
    },
    {
      "category": "Communities",
      "placeName": "Fulda, Hesse",
      "link": "https://darksky.org/places/fulda-dark-sky-community/"
    },
    {
      "category": "Sanctuaries",
      "placeName": "Gabriela Mistral",
      "link": "https://darksky.org/places/gabriela-mistral-dark-sky-sanctuary/"
    },
    {
      "category": "Parks",
      "placeName": "Galloway Forest Park",
      "link": "https://darksky.org/places/galloway-forest-park-dark-sky-park/"
    },
    {
      "category": "Parks",
      "placeName": "Gantrisch Dark Sky Zone, Switzerland",
      "link": "https://darksky.org/places/gantrisch-dark-sky-zone-switzerland/"
    },
    {
      "category": "Parks",
      "placeName": "Geauga Observatory Park",
      "link": "https://darksky.org/places/geauga-observatory-park-dark-sky-park/"
    },
    {
      "category": "Parks",
      "placeName": "Goblin Valley State Park",
      "link": "https://darksky.org/places/goblin-valley-state-park-dark-sky-park/"
    },
    {
      "category": "Parks",
      "placeName": "Goosenecks State Park",
      "link": "https://darksky.org/places/goosenecks-state-park-dark-sky-park/"
    },
    {
      "category": "Parks",
      "placeName": "Grand Canyon National Park",
      "link": "https://darksky.org/places/grand-canyon-national-park-dark-sky-park/"
    },
    {
      "category": "Parks",
      "placeName": "Grand Canyon-Parashant National Monument",
      "link": "https://darksky.org/places/grand-canyon-parashant-national-monument-dark-sky-park/"
    },
    {
      "category": "Parks",
      "placeName": "Great Basin National Park",
      "link": "https://darksky.org/places/great-basin-national-park-dark-sky-park/"
    },
    {
      "category": "Parks",
      "placeName": "Great Sand Dunes National Park and Preserve",
      "link": "https://darksky.org/places/great-sand-dunes-national-park-dark-sky-park/"
    },
    {
      "category": "Reserves",
      "placeName": "Greater Big Bend International Dark Sky Reserve",
      "link": "https://darksky.org/places/greater-big-bend-international-dark-sky-reserve/"
    },
    {
      "category": "Communities",
      "placeName": "Groveland, Florida",
      "link": "https://darksky.org/places/groveland-florida-dark-sky-community/"
    },
    {
      "category": "Parks",
      "placeName": "Gunnison Gorge National Conservation Area",
      "link": "https://darksky.org/places/gunnison-gorge-national-conservation-area/"
    },
    {
      "category": "Communities",
      "placeName": "Hawthorn Woods, Illinois",
      "link": "https://darksky.org/places/hawthorn-woods-illinois-dark-sky-community/"
    },
    {
      "category": "Parks",
      "placeName": "Headlands",
      "link": "https://darksky.org/places/headlands-dark-sky-park/"
    },
    {
      "category": "Parks",
      "placeName": "Hehuan Mountain",
      "link": "https://darksky.org/places/hehuan-mountain-dark-sky-park/"
    },
    {
      "category": "Communities",
      "placeName": "Helper, Utah",
      "link": "https://darksky.org/places/helper-utah-dark-sky-community/"
    },
    {
      "category": "Communities",
      "placeName": "Homer Glen, Illinois",
      "link": "https://darksky.org/places/homer-glen-illinois-dark-sky-community/"
    },
    {
      "category": "Communities",
      "placeName": "Horseshoe Bay, Texas",
      "link": "https://darksky.org/places/horseshoe-bay-texas-dark-sky-community/"
    },
    {
      "category": "Parks",
      "placeName": "Hortobágy National Park",
      "link": "https://darksky.org/places/hortobagy-national-park-dark-sky-park/"
    },
    {
      "category": "Parks",
      "placeName": "Hovenweep National Monument",
      "link": "https://darksky.org/places/hovenweep-national-monument-dark-sky-park/"
    },
    {
      "category": "Parks",
      "placeName": "Iriomote-Ishigaki National Park",
      "link": "https://darksky.org/places/iriomote-ishigaki-national-park-dark-sky-park/"
    },
    {
      "category": "Sanctuaries",
      "placeName": "Isle of Rum",
      "link": "https://darksky.org/places/isle-of-rum/"
    },
    {
      "category": "Parks",
      "placeName": "Jackson Lake State Park",
      "link": "https://darksky.org/places/jackson-lake-state-park-dark-sky-park/"
    },
    {
      "category": "Parks",
      "placeName": "James River State Park",
      "link": "https://darksky.org/places/james-river-state-park-dark-sky-park/"
    },
    {
      "category": "Communities",
      "placeName": "Jelsa",
      "link": "https://darksky.org/places/jelsa-dark-sky-community/"
    },
    {
      "category": "Communities",
      "placeName": "Jonestown, Texas",
      "link": "https://darksky.org/places/jonestown-texas/"
    },
    {
      "category": "Parks",
      "placeName": "Jordanelle State Park",
      "link": "https://darksky.org/places/jordanelle-state-park-dark-sky-park/"
    },
    {
      "category": "Parks",
      "placeName": "Joshua Tree National Park",
      "link": "https://darksky.org/places/joshua-tree-national-park-dark-sky-park/"
    },
    {
      "category": "Urban Places",
      "placeName": "Joya-La Barreta Ecological Park",
      "link": "https://darksky.org/places/joya-la-barreta-ecological-park/"
    },
    {
      "category": "Communities",
      "placeName": "Julian, California",
      "link": "https://darksky.org/places/julian-dark-sky-community/"
    },
    {
      "category": "Parks",
      "placeName": "Kartchner Caverns State Park",
      "link": "https://darksky.org/places/kartchner-caverns-state-park-dark-sky-park/"
    },
    {
      "category": "Sanctuaries",
      "placeName": "Katahdin Woods and Waters National Monument",
      "link": "https://darksky.org/places/katahdin-woods-and-waters-dark-sky-sanctuary/"
    },
    {
      "category": "Parks",
      "placeName": "Kawarau Gibbston Dark Sky Park",
      "link": "https://darksky.org/places/kawarau-gibbston-dark-sky-park/"
    },
    {
      "category": "Reserves",
      "placeName": "Kerry",
      "link": "https://darksky.org/places/kerry-dark-sky-reserve/"
    },
    {
      "category": "Communities",
      "placeName": "Ketchum, Idaho",
      "link": "https://darksky.org/places/ketchum-dark-sky-community/"
    },
    {
      "category": "Parks",
      "placeName": "Keweenaw Dark Sky Park",
      "link": "https://darksky.org/places/keweenaw-michigan-dark-sky-park/"
    },
    {
      "category": "Parks",
      "placeName": "Kissimmee Prairie Preserve State Park",
      "link": "https://darksky.org/places/kissimmee-prairie-preserve-dark-sky-park/"
    },
    {
      "category": "Parks",
      "placeName": "Kozushima Dark Sky Island",
      "link": "https://darksky.org/places/kozushima-island-dark-sky-park/"
    },
    {
      "category": "Parks",
      "placeName": "Lake Fork Earth and Sky Center",
      "link": "https://darksky.org/places/lake-fork-earth-and-sky-center-dark-sky-park/"
    },
    {
      "category": "Communities",
      "placeName": "Lakewood Village, Texas",
      "link": "https://darksky.org/places/lakewood-village-texas-dark-sky-community/"
    },
    {
      "category": "Parks",
      "placeName": "Lauwersmeer National Park",
      "link": "https://darksky.org/places/lauwersmeer-national-park-dark-sky-park/"
    },
    {
      "category": "Sanctuaries",
      "placeName": "Lost Trail National Wildlife Refuge",
      "link": "https://darksky.org/places/lost-trail-national-wildlife-refuge-dark-sky-sanctuary/"
    },
    {
      "category": "Parks",
      "placeName": "Lyndon B. Johnson National Historical Park",
      "link": "https://darksky.org/places/lyndon-b-johnson-national-historical-park-dark-sky-park/"
    },
    {
      "category": "Parks",
      "placeName": "Mammoth Cave National Park",
      "link": "https://darksky.org/places/mammoth-cave-national-park-dark-sky-park/"
    },
    {
      "category": "Parks",
      "placeName": "Mandø",
      "link": "https://darksky.org/places/mando/"
    },
    {
      "category": "Sanctuaries",
      "placeName": "Massacre Rim Wilderness Study Area",
      "link": "https://darksky.org/places/massacre-rim-wilderness-study-area-dark-sky-sanctuary/"
    },
    {
      "category": "Parks",
      "placeName": "Mayland Earth to Sky Park & Bare Dark Sky Observatory",
      "link": "https://darksky.org/places/mayland-earth-to-sky-park-dark-sky-park/"
    },
    {
      "category": "Parks",
      "placeName": "Mayo Dark Sky Park",
      "link": "https://darksky.org/places/mayo-dark-sky-park/"
    },
    {
      "category": "Sanctuaries",
      "placeName": "Medicine Rocks State Park",
      "link": "https://darksky.org/places/medicine-rocks-state-park-dark-sky-sanctuary/"
    },
    {
      "category": "Parks",
      "placeName": "Merritt Reservoir State Recreation Area",
      "link": "https://darksky.org/places/merritt-reservoir-dark-sky-park/"
    },
    {
      "category": "Parks",
      "placeName": "Mesa Verde National Park",
      "link": "https://darksky.org/places/mesa-verde-national-park-dark-sky-park/"
    },
    {
      "category": "Parks",
      "placeName": "Middle Fork River Forest Preserve",
      "link": "https://darksky.org/places/middle-fork-river-forest-preserve-dark-sky-park/"
    },
    {
      "category": "Parks",
      "placeName": "Milton Reimers Ranch Park",
      "link": "https://darksky.org/places/milton-reimers-ranch-park-dark-sky-park/"
    },
    {
      "category": "Urban Places",
      "placeName": "Minami-Rokuroshi",
      "link": "https://darksky.org/places/minami-rokuroshi/"
    },
    {
      "category": "Communities",
      "placeName": "Moffat",
      "link": "https://darksky.org/places/moffat-dark-sky-community/"
    },
    {
      "category": "Reserves",
      "placeName": "Mont-Mégantic",
      "link": "https://darksky.org/places/mont-megantic-dark-sky-reserve/"
    },
    {
      "category": "Reserves",
      "placeName": "Moore’s Reserve",
      "link": "https://darksky.org/places/moores-reserve-south-downs-dark-sky-reserve/"
    },
    {
      "category": "Communities",
      "placeName": "Møn and Nyord",
      "link": "https://darksky.org/places/mon-and-nyord-dark-sky-community/"
    },
    {
      "category": "Parks",
      "placeName": "Møn and Nyord",
      "link": "https://darksky.org/places/mon-and-nyord-dark-sky-park/"
    },
    {
      "category": "Reserves",
      "placeName": "NamibRand Nature Reserve",
      "link": "https://darksky.org/places/namibrand-dark-sky-reserve/"
    },
    {
      "category": "Parks",
      "placeName": "Natural Bridge State Park",
      "link": "https://darksky.org/places/natural-bridge-state-park-dark-sky-park/"
    },
    {
      "category": "Parks",
      "placeName": "Natural Bridges National Monument",
      "link": "https://darksky.org/places/natural-bridges-national-monument-dark-sky-park/"
    },
    {
      "category": "Parks",
      "placeName": "Naturpark Attersee-Traunsee",
      "link": "https://darksky.org/places/naturpark-attersee-traunsee-dark-sky-park/"
    },
    {
      "category": "Parks",
      "placeName": "Newport State Park",
      "link": "https://darksky.org/places/newport-state-park-dark-sky-park/"
    },
    {
      "category": "Communities",
      "placeName": "Niue",
      "link": "https://darksky.org/places/niue-dark-sky-community/"
    },
    {
      "category": "Sanctuaries",
      "placeName": "Niue",
      "link": "https://darksky.org/places/niue-dark-sky-sanctuary/"
    },
    {
      "category": "Parks",
      "placeName": "North Fork Park",
      "link": "https://darksky.org/places/north-fork-park-dark-sky-park/"
    },
    {
      "category": "Communities",
      "placeName": "North Ronaldsay Dark Sky Island",
      "link": "https://darksky.org/places/north-ronaldsay-island-dark-sky-community/"
    },
    {
      "category": "Reserves",
      "placeName": "North York Moors National Park",
      "link": "https://darksky.org/places/north-york-moors-national-park-dark-sky-reserve/"
    },
    {
      "category": "Parks",
      "placeName": "Northumberland National Park and Kielder Water & Forest Park",
      "link": "https://darksky.org/places/northumberland-national-park-and-kielder-water-forest-dark-sky-park/"
    },
    {
      "category": "Communities",
      "placeName": "Norwood, Colorado",
      "link": "https://darksky.org/places/norwood-colorado-dark-sky-community/"
    },
    {
      "category": "Communities",
      "placeName": "Nucla and Naturita, Colorado",
      "link": "https://darksky.org/places/nucla-and-naturita-colorado-dark-sky-community/"
    },
    {
      "category": "Parks",
      "placeName": "Obed Wild and Scenic River",
      "link": "https://darksky.org/places/obed-wild-and-scenic-river-dark-sky-park/"
    },
    {
      "category": "Parks",
      "placeName": "OM Dark Sky Park & Observatory",
      "link": "https://darksky.org/places/om-dark-sky-park-and-observatory-dark-sky-park/"
    },
    {
      "category": "Parks",
      "placeName": "Oracle State Park",
      "link": "https://darksky.org/places/oracle-state-park-dark-sky-park/"
    },
    {
      "category": "Sanctuaries",
      "placeName": "Oregon Outback",
      "link": "https://darksky.org/places/oregon-outback-international-dark-sky-sanctuary-oregon/"
    },
    {
      "category": "Parks",
      "placeName": "Oxford Forest Conservation Area, New Zealand",
      "link": "https://darksky.org/places/oxford-forest-conservation-area-new-zealand/"
    },
    {
      "category": "Parks",
      "placeName": "Øvre Pasvik National Park",
      "link": "https://darksky.org/places/ovre-pasvik-national-park/"
    },
    {
      "category": "Urban Places",
      "placeName": "Palm Beach Headland",
      "link": "https://darksky.org/places/palm-beach-headland/"
    },
    {
      "category": "Urban Places",
      "placeName": "Palos Preserves",
      "link": "https://darksky.org/places/palos-preserves-urban-night-sky-place/"
    },
    {
      "category": "Urban Places",
      "placeName": "Parc du Mont-Bellevue",
      "link": "https://darksky.org/places/parc-du-mont-bellevue-urban-night-sky-place/"
    },
    {
      "category": "Parks",
      "placeName": "Parc national du Mont-Tremblant",
      "link": "https://darksky.org/places/parc-national-du-mont-tremblant/"
    },
    {
      "category": "Communities",
      "placeName": "Pellworm Star Island",
      "link": "https://darksky.org/places/pellworm-star-island-dark-sky-community/"
    },
    {
      "category": "Parks",
      "placeName": "Petrified Forest National Park",
      "link": "https://darksky.org/places/petrified-forest-national-park-dark-sky-park/"
    },
    {
      "category": "Parks",
      "placeName": "Petrova Gora-Biljeg",
      "link": "https://darksky.org/places/petrova-gora-biljeg-dark-sky-park/"
    },
    {
      "category": "Reserves",
      "placeName": "Pic du Midi",
      "link": "https://darksky.org/places/pic-du-midi-dark-sky-reserve/"
    },
    {
      "category": "Parks",
      "placeName": "Pickett CCC Memorial State Park & Pogue Creek Canyon State Natural Area",
      "link": "https://darksky.org/places/pickett-memorial-and-pogue-creek-canyon-dark-sky-park/"
    },
    {
      "category": "Parks",
      "placeName": "Pipe Spring National Monument",
      "link": "https://darksky.org/places/pipe-spring-national-monument-dark-sky-park/"
    },
    {
      "category": "Parks",
      "placeName": "Pisgah Astronomical Research Institute",
      "link": "https://darksky.org/places/pisgah-astronomical-research-institute-dark-sky-park/"
    },
    {
      "category": "Sanctuaries",
      "placeName": "Pitcairn Islands",
      "link": "https://darksky.org/places/pitcairn-islands-dark-sky-sanctuary/"
    },
    {
      "category": "Communities",
      "placeName": "Presteigne & Norton Dark Sky Community, Wales",
      "link": "https://darksky.org/places/presteigne-norton-dark-sky-community-wales/"
    },
    {
      "category": "Parks",
      "placeName": "Prineville Reservoir State Park",
      "link": "https://darksky.org/places/prineville-reservoir-state-park-dark-sky-park/"
    },
    {
      "category": "Parks",
      "placeName": "Quetico Provincial Park",
      "link": "https://darksky.org/places/quetico-provincial-park-dark-sky-park/"
    },
    {
      "category": "Sanctuaries",
      "placeName": "Rainbow Bridge National Monument",
      "link": "https://darksky.org/places/rainbow-bridge-national-monument-dark-sky-sanctuary/"
    },
    {
      "category": "Parks",
      "placeName": "Ramon Crater Nature Reserve",
      "link": "https://darksky.org/places/ramon-crater-nature-reserve-dark-sky-park/"
    },
    {
      "category": "Parks",
      "placeName": "Rappahannock County Park",
      "link": "https://darksky.org/places/rappahannock-county-park-dark-sky-park/"
    },
    {
      "category": "Reserves",
      "placeName": "Regional Natural Park of Millevaches in Limousin",
      "link": "https://darksky.org/places/regional-natural-park-of-millevaches-dark-sky-reserve/"
    },
    {
      "category": "Reserves",
      "placeName": "Regional Natural Park of Vercors",
      "link": "https://darksky.org/places/regional-natural-park-of-vercors/"
    },
    {
      "category": "Reserves",
      "placeName": "Rhön",
      "link": "https://darksky.org/places/rhon-dark-sky-reserve/"
    },
    {
      "category": "Communities",
      "placeName": "Ridgway, Colorado",
      "link": "https://darksky.org/places/ridgway-colorado-dark-sky-community/"
    },
    {
      "category": "Reserves",
      "placeName": "River Murray",
      "link": "https://darksky.org/places/river-murray-dark-sky-reserve/"
    },
    {
      "category": "Parks",
      "placeName": "Rockport State Park",
      "link": "https://darksky.org/places/rockport-state-park-dark-sky-park/"
    },
    {
      "category": "Urban Places",
      "placeName": "Saguaro National Park",
      "link": "https://darksky.org/places/saguaro-national-park/"
    },
    {
      "category": "Parks",
      "placeName": "Salinas Pueblo Missions National Monument",
      "link": "https://darksky.org/places/salinas-pueblo-missions-national-monument-dark-sky-park/"
    },
    {
      "category": "Communities",
      "placeName": "Sark, Channel Islands",
      "link": "https://darksky.org/places/sark-dark-sky-community/"
    },
    {
      "category": "Communities",
      "placeName": "Sedona, Arizona",
      "link": "https://darksky.org/places/sedona-arizona-dark-sky-community/"
    },
    {
      "category": "Urban Places",
      "placeName": "Shield Ranch Barton Creek",
      "link": "https://darksky.org/places/shield-ranch-barton-creek/"
    },
    {
      "category": "Parks",
      "placeName": "Sinks Canyon State Park",
      "link": "https://darksky.org/places/sinks-canyon-state-park/"
    },
    {
      "category": "Parks",
      "placeName": "Sky Meadows State Park",
      "link": "https://darksky.org/places/sky-meadows-state-park-dark-sky-park/"
    },
    {
      "category": "Communities",
      "placeName": "Sopotnia Wielka",
      "link": "https://darksky.org/places/sopotnia-wielka/"
    },
    {
      "category": "Parks",
      "placeName": "South Llano River State Park",
      "link": "https://darksky.org/places/south-llano-river-state-park-dark-sky-park/"
    },
    {
      "category": "Communities",
      "placeName": "Spiekeroog Star Island",
      "link": "https://darksky.org/places/spiekeroog-star-island-dark-sky-community/"
    },
    {
      "category": "Communities",
      "placeName": "Springdale, Utah",
      "link": "https://darksky.org/places/springdale-utah-dark-sky-community/"
    },
    {
      "category": "Urban Places",
      "placeName": "Stacy Park",
      "link": "https://darksky.org/places/stacy-park-urban-night-sky-place/"
    },
    {
      "category": "Parks",
      "placeName": "Staunton River State Park",
      "link": "https://darksky.org/places/staunton-river-state-park-dark-sky-park/"
    },
    {
      "category": "Parks",
      "placeName": "Steinaker State Park",
      "link": "https://darksky.org/places/steinaker-state-park-dark-sky-park/"
    },
    {
      "category": "Parks",
      "placeName": "Stephen C. Foster State Park",
      "link": "https://darksky.org/places/stephen-c-foster-state-park-dark-sky-park/"
    },
    {
      "category": "Sanctuaries",
      "placeName": "Stewart Island / Rakiura",
      "link": "https://darksky.org/places/stewart-island-rakiura-dark-sky-sanctuary/"
    },
    {
      "category": "Communities",
      "placeName": "The City of Moab",
      "link": "https://darksky.org/places/the-city-of-moab/"
    },
    {
      "category": "Sanctuaries",
      "placeName": "The Jump-Up",
      "link": "https://darksky.org/places/the-jump-up-dark-sky-sanctuary/"
    },
    {
      "category": "Communities",
      "placeName": "Thunder Mountain Pootsee Nightsky",
      "link": "https://darksky.org/places/kaibab-paiute-indian-reservation-dark-sky-community/"
    },
    {
      "category": "Urban Places",
      "placeName": "Timpanogos Cave National Monument",
      "link": "https://darksky.org/places/timpanogos-cave-national-monument-urban-night-sky-place/"
    },
    {
      "category": "Parks",
      "placeName": "Tomintoul and Glenlivet – Cairngorms",
      "link": "https://darksky.org/places/tomintoul-glenlivet-cairngorms-dark-sky-park/"
    },
    {
      "category": "Parks",
      "placeName": "Tonto National Monument",
      "link": "https://darksky.org/places/tonto-national-monument-dark-sky-park/"
    },
    {
      "category": "Parks",
      "placeName": "Top of the Pines",
      "link": "https://darksky.org/places/top-of-the-pines-dark-sky-park/"
    },
    {
      "category": "Communities",
      "placeName": "Torrey, Utah",
      "link": "https://darksky.org/places/torrey-utah-dark-sky-community/"
    },
    {
      "category": "Communities",
      "placeName": "Town of Castle Valley, Utah",
      "link": "https://darksky.org/places/castle_valley/"
    },
    {
      "category": "Communities",
      "placeName": "Town of Paonia",
      "link": "https://darksky.org/places/paonia-colorado/"
    },
    {
      "category": "Communities",
      "placeName": "Tubac, Arizona",
      "link": "https://darksky.org/places/tubac/"
    },
    {
      "category": "Parks",
      "placeName": "Tumacácori National Historical Park",
      "link": "https://darksky.org/places/tumacacori-national-historical-park-dark-sky-park/"
    },
    {
      "category": "Parks",
      "placeName": "UBarU Camp and Retreat Center",
      "link": "https://darksky.org/places/ubaru-camp-and-retreat-center-dark-sky-park/"
    },
    {
      "category": "DarkSky Approved Lodging",
      "placeName": "Under Canvas Bryce Canyon",
      "link": "https://darksky.org/places/under-canvas-bryce-canyon/"
    },
    {
      "category": "DarkSky Approved Lodging",
      "placeName": "Under Canvas Grand Canyon",
      "link": "https://darksky.org/places/under-canvas-grand-canyon/"
    },
    {
      "category": "DarkSky Approved Lodging",
      "placeName": "Under Canvas Lake Powell – Grand Staircase",
      "link": "https://darksky.org/places/under-canvas-lake-powell-grand-staircase/"
    },
    {
      "category": "DarkSky Approved Lodging",
      "placeName": "Under Canvas Moab",
      "link": "https://darksky.org/places/under-canvas-moab/"
    },
    {
      "category": "DarkSky Approved Lodging",
      "placeName": "Under Canvas Zion",
      "link": "https://darksky.org/places/under-canvas-zion/"
    },
    {
      "category": "Urban Places",
      "placeName": "Valle de Oro National Wildlife Refuge",
      "link": "https://darksky.org/places/valle-de-oro-national-wildlife-refuge-urban-night-sky-place/"
    },
    {
      "category": "Parks",
      "placeName": "Valles Caldera National Preserve",
      "link": "https://darksky.org/places/valles-caldera-national-preserve-dark-sky-park/"
    },
    {
      "category": "Parks",
      "placeName": "Voyageurs National Park",
      "link": "https://darksky.org/places/voyageurs-national-park-dark-sky-park/"
    },
    {
      "category": "Parks",
      "placeName": "Vrani kamen",
      "link": "https://darksky.org/places/vrani-kamen-dark-sky-park/"
    },
    {
      "category": "Parks",
      "placeName": "Wai-Iti",
      "link": "https://darksky.org/places/wai-iti-dark-sky-park/"
    },
    {
      "category": "Reserves",
      "placeName": "Wairarapa Dark Sky Reserve",
      "link": "https://darksky.org/places/wairarapa-dark-sky-reserve/"
    },
    {
      "category": "Parks",
      "placeName": "Warrumbungle Dark Sky Park",
      "link": "https://darksky.org/places/warrumbungle-dark-sky-park/"
    },
    {
      "category": "Parks",
      "placeName": "Waterton-Glacier International Peace Park",
      "link": "https://darksky.org/places/waterton-glacier-international-peace-park-dark-sky-park/"
    },
    {
      "category": "Parks",
      "placeName": "Watoga State Park",
      "link": "https://darksky.org/places/watoga-state-park-dark-sky-park/"
    },
    {
      "category": "Parks",
      "placeName": "West Penwith",
      "link": "https://darksky.org/places/west-penwith-dark-sky-park/"
    },
    {
      "category": "Communities",
      "placeName": "Westcliffe and Silver Cliff, Colorado",
      "link": "https://darksky.org/places/westcliffe-and-silver-cliff-dark-sky-community/"
    },
    {
      "category": "Reserves",
      "placeName": "Westhavelland",
      "link": "https://darksky.org/places/westhavelland-dark-sky-reserve/"
    },
    {
      "category": "Communities",
      "placeName": "Wimberley Valley, Texas",
      "link": "https://darksky.org/places/wimberley-valley-texas-dark-sky-community/"
    },
    {
      "category": "Parks",
      "placeName": "Winklmoosalm",
      "link": "https://darksky.org/places/winklmoosalm-dark-sky-park/"
    },
    {
      "category": "Communities",
      "placeName": "Xichong, Shenzen",
      "link": "https://darksky.org/places/xichong-shenzhen-dark-sky-community/"
    },
    {
      "category": "Parks",
      "placeName": "Yeongyang Firefly Eco Park",
      "link": "https://darksky.org/places/yeongyang-firefly-eco-park-dark-sky-park/"
    },
    {
      "category": "Sanctuaries",
      "placeName": "Ynys Enlli – Bardsey Island",
      "link": "https://darksky.org/places/ynys-enlli-bardsey-island-dark-sky-sanctuary/"
    },
    {
      "category": "Reserves",
      "placeName": "Yorkshire Dales National Park",
      "link": "https://darksky.org/places/yorkshire-dales-national-park-dark-sky-reserve/"
    },
    {
      "category": "Parks",
      "placeName": "Zion National Park",
      "link": "https://darksky.org/places/zion-national-park-dark-sky-park/"
    },
    {
      "category": "Parks",
      "placeName": "Zselic National Landscape Protection Area",
      "link": "https://darksky.org/places/zselic-national-landscape-protection-area-dark-sky-park/"
    }
  ]