[
  {
    "category": "Sanctuaries",
    "placeName": "!Ae!Hai Kalahari Heritage Park",
    "coords": "-27.4327193,20.3638621"
  },
  {
    "category": "Parks",
    "placeName": "Aenos National Park",
    "coords": "38.1406036,20.656048"
  },
  {
    "category": "Parks",
    "placeName": "Albanyà",
    "coords": "42.3050773,2.7115363"
  },
  {
    "category": "Reserves",
    "placeName": "Alpes Azur Mercantour",
    "coords": "44.1521572,6.9992229"
  },
  {
    "category": "Parks",
    "placeName": "AMC Maine Woods",
    "coords": "45.4912817,-69.3946364"
  },
  {
    "category": "Parks",
    "placeName": "Antelope Island State Park",
    "coords": "41.0894784,-112.1130089"
  },
  {
    "category": "Parks",
    "placeName": "Anza-Borrego Desert State Park",
    "coords": "33.2559237,-116.4038851"
  },
  {
    "category": "Reserves",
    "placeName": "Aoraki Mackenzie",
    "coords": "-43.5949749,169.8616369"
  },
  {
    "category": "Sanctuaries",
    "placeName": "Aotea Great Barrier Island",
    "coords": "-37.6612545,166.6167645"
  },
  {
    "category": "Parks",
    "placeName": "Arches National Park",
    "coords": "38.7320195,-109.7257232"
  },
  {
    "category": "Sanctuaries",
    "placeName": "Arkaroola Wilderness Sanctuary",
    "coords": "-30.3116867,139.3358408"
  },
  {
    "category": "Reserves",
    "placeName": "Bannau Brycheiniog National Park (Brecon Beacons)",
    "coords": "51.8631966,-3.4275401"
  },
  {
    "category": "Sanctuaries",
    "placeName": "Beaver Island State Wildlife Research Area",
    "coords": "45.6748267,-85.8084372"
  },
  {
    "category": "Communities",
    "placeName": "Bee Cave",
    "coords": "30.6589749,-105.3130123"
  },
  {
    "category": "Communities",
    "placeName": "Beverly Shores, Indiana",
    "coords": "41.7064441,-87.1319772"
  },
  {
    "category": "Parks",
    "placeName": "Big Bend National Park",
    "coords": "29.3342458,-103.2873843"
  },
  {
    "category": "Parks",
    "placeName": "Big Bend Ranch State Park",
    "coords": "29.269868,-103.7661333"
  },
  {
    "category": "Parks",
    "placeName": "Big Cypress National Preserve",
    "coords": "25.9006137,-81.322254"
  },
  {
    "category": "Communities",
    "placeName": "Big Park / Village of Oak Creek, Arizona",
    "coords": "34.77991,-111.755117"
  },
  {
    "category": "Communities",
    "placeName": "Bisei Town, Ibara City",
    "coords": "34.6724314,133.5445685"
  },
  {
    "category": "Parks",
    "placeName": "Black Canyon of the Gunnison National Park",
    "coords": "38.5748599,-107.7351729"
  },
  {
    "category": "Sanctuaries",
    "placeName": "Black Gap Wildlife Management Area",
    "coords": "29.5668414,-102.9428952"
  },
  {
    "category": "Communities",
    "placeName": "Blanco, Texas",
    "coords": "30.0990345,-98.4225428"
  },
  {
    "category": "Parks",
    "placeName": "Bodmin Moor Dark Sky Landscape",
    "coords": "50.5547953,-4.6090771"
  },
  {
    "category": "Communities",
    "placeName": "Bon Accord, Alberta",
    "coords": "53.8416343,-113.4155463"
  },
  {
    "category": "Communities",
    "placeName": "Borrego Springs, California",
    "coords": "33.2549099,-116.352984"
  },
  {
    "category": "Sanctuaries",
    "placeName": "Boundary Waters Canoe Area Wilderness",
    "coords": "48.0010416,-91.3362479"
  },
  {
    "category": "Parks",
    "placeName": "Bruneau Dunes State Park",
    "coords": "42.9111653,-115.7150834"
  },
  {
    "category": "Parks",
    "placeName": "Bryce Canyon National Park",
    "coords": "37.5838537,-112.1908124"
  },
  {
    "category": "Parks",
    "placeName": "Buffalo National River",
    "coords": "35.9828912,-92.7548041"
  },
  {
    "category": "Parks",
    "placeName": "Bükk National Park",
    "coords": "48.0556308,20.4037901"
  },
  {
    "category": "Communities",
    "placeName": "Camp Verde, Arizona",
    "coords": "34.575228,-111.8629025"
  },
  {
    "category": "Parks",
    "placeName": "Canyonlands National Park",
    "coords": "38.2269533,-109.9005907"
  },
  {
    "category": "Parks",
    "placeName": "Cape Lookout National Seashore",
    "coords": "34.6227469,-76.5246207"
  },
  {
    "category": "Parks",
    "placeName": "Capitol Reef National Park",
    "coords": "38.1202645,-111.1456716"
  },
  {
    "category": "Parks",
    "placeName": "Capulin Volcano National Monument",
    "coords": "36.7816231,-103.9721263"
  },
  {
    "category": "Communities",
    "placeName": "Carrickalinga",
    "coords": "-35.4441835,138.3337033"
  },
  {
    "category": "Parks",
    "placeName": "Cedar Breaks National Monument",
    "coords": "37.6362696,-112.8539892"
  },
  {
    "category": "Reserves",
    "placeName": "Central Idaho",
    "coords": "45.494514,-114.143261"
  },
  {
    "category": "Reserves",
    "placeName": "Cévennes National Park",
    "coords": "44.2821091,3.6562269"
  },
  {
    "category": "Parks",
    "placeName": "Chaco Culture National Historical Park",
    "coords": "36.0529998,-107.955924"
  },
  {
    "category": "Parks",
    "placeName": "Cherry Springs State Park",
    "coords": "41.6632215,-77.8234031"
  },
  {
    "category": "Parks",
    "placeName": "Chiricahua National Monument",
    "coords": "32.0121408,-109.3437992"
  },
  {
    "category": "Parks",
    "placeName": "City of Rocks National Reserve",
    "coords": "42.0727057,-113.7063657"
  },
  {
    "category": "Parks",
    "placeName": "Clayton Lake State Park",
    "coords": "34.2069943,-117.3223723"
  },
  {
    "category": "Communities",
    "placeName": "Coll",
    "coords": "56.6246136,-6.8420297"
  },
  {
    "category": "Parks",
    "placeName": "Copper Breaks State Park",
    "coords": "34.1124143,-99.7506301"
  },
  {
    "category": "Sanctuaries",
    "placeName": "Cosmic Campground",
    "coords": "33.47948,-108.9225102"
  },
  {
    "category": "Communities",
    "placeName": "Cottonwood, Arizona",
    "coords": "34.7072894,-112.0008641"
  },
  {
    "category": "Reserves",
    "placeName": "Cranborne Chase",
    "coords": "50.9559843,-2.0737152"
  },
  {
    "category": "Parks",
    "placeName": "Craters Of The Moon National Monument",
    "coords": "43.1717745,-113.4821281"
  },
  {
    "category": "Communities",
    "placeName": "Crestone, Colorado",
    "coords": "37.9952065,-105.6976515"
  },
  {
    "category": "Parks",
    "placeName": "Curecanti National Recreation Area",
    "coords": "38.4659112,-107.1667169"
  },
  {
    "category": "Parks",
    "placeName": "Dark Sky Park Bulbjerg",
    "coords": "57.153575,8.9600938"
  },
  {
    "category": "Parks",
    "placeName": "De Boschplaat",
    "coords": "53.4417368,5.2399328"
  },
  {
    "category": "Parks",
    "placeName": "Dead Horse Point State Park",
    "coords": "38.5054267,-109.7294241"
  },
  {
    "category": "Parks",
    "placeName": "Death Valley National Park",
    "coords": "36.4830059,-117.0496376"
  },
  {
    "category": "Parks",
    "placeName": "Desengano State Park",
    "coords": "-21.9048607,-41.9498187"
  },
  {
    "category": "Sanctuaries",
    "placeName": "Devils River State Natural Area — Del Norte Unit",
    "coords": "29.9401792,-100.9698151"
  },
  {
    "category": "Parks",
    "placeName": "Dinosaur National Monument",
    "coords": "40.5126238,-108.967892"
  },
  {
    "category": "Parks",
    "placeName": "Dr. T.K. Lawless County Park",
    "coords": "41.8974161,-85.8626857"
  },
  {
    "category": "Communities",
    "placeName": "Dripping Springs, Texas",
    "coords": "30.1852095,-98.0874594"
  },
  {
    "category": "Parks",
    "placeName": "East Canyon State Park",
    "coords": "40.924596,-111.5909564"
  },
  {
    "category": "Parks",
    "placeName": "Eifel National Park",
    "coords": "50.5973899,6.4171743"
  },
  {
    "category": "Communities",
    "placeName": "Eiweiler Star Village",
    "coords": "49.5526553,7.0107393"
  },
  {
    "category": "Parks",
    "placeName": "El Morro National Monument",
    "coords": "35.0397868,-108.352628"
  },
  {
    "category": "Parks",
    "placeName": "Elan Valley Estate",
    "coords": "52.2916025,-3.571826"
  },
  {
    "category": "Parks",
    "placeName": "Enchanted Rock State Natural Area",
    "coords": "30.4951229,-98.8199993"
  },
  {
    "category": "Reserves",
    "placeName": "Eryri National Park (Snowdonia)",
    "coords": "52.9005518,-3.8963384"
  },
  {
    "category": "Reserves",
    "placeName": "Exmoor National Park",
    "coords": "51.134614,-3.6462346"
  },
  {
    "category": "Parks",
    "placeName": "Flagstaff Area National Monuments",
    "coords": "35.204007,-111.5787022"
  },
  {
    "category": "Communities",
    "placeName": "Flagstaff, Arizona",
    "coords": "35.1812076,-111.607959"
  },
  {
    "category": "Parks",
    "placeName": "Florissant Fossil Beds National Monument",
    "coords": "38.9136095,-105.2942414"
  },
  {
    "category": "Parks",
    "placeName": "Fort Union National Monument",
    "coords": "35.9049657,-105.0201344"
  },
  {
    "category": "Communities",
    "placeName": "Fountain Hills, Arizona",
    "coords": "33.6041245,-111.7435215"
  },
  {
    "category": "Communities",
    "placeName": "Fredericksburg, Texas",
    "coords": "30.2678595,-98.87806"
  },
  {
    "category": "Parks",
    "placeName": "Fremont Indian State Park",
    "coords": "38.5775683,-112.3349416"
  },
  {
    "category": "Urban Places",
    "placeName": "Fry Family Park",
    "coords": "40.661852,-81.3536909"
  },
  {
    "category": "Communities",
    "placeName": "Fulda, Hesse",
    "coords": "50.5644255,9.6495359"
  },
  {
    "category": "Sanctuaries",
    "placeName": "Gabriela Mistral",
    "coords": "-29.88702,-71.4227946"
  },
  {
    "category": "Parks",
    "placeName": "Galloway Forest Park",
    "coords": "55.3007745,-4.4650614"
  },
  {
    "category": "Parks",
    "placeName": "Gantrisch Dark Sky Zone, Switzerland",
    "coords": "46.7819074,7.3376995"
  },
  {
    "category": "Parks",
    "placeName": "Geauga Observatory Park",
    "coords": "41.5848846,-81.0805816"
  },
  {
    "category": "Parks",
    "placeName": "Goblin Valley State Park",
    "coords": "38.5779757,-110.7074544"
  },
  {
    "category": "Parks",
    "placeName": "Goosenecks State Park",
    "coords": "37.1749025,-109.9271273"
  },
  {
    "category": "Parks",
    "placeName": "Grand Canyon National Park",
    "coords": "36.0924094,-112.843134"
  },
  {
    "category": "Parks",
    "placeName": "Grand Canyon-Parashant National Monument",
    "coords": "36.3058464,-113.6680742"
  },
  {
    "category": "Parks",
    "placeName": "Great Basin National Park",
    "coords": "38.9418717,-114.242784"
  },
  {
    "category": "Parks",
    "placeName": "Great Sand Dunes National Park and Preserve",
    "coords": "37.801971,-105.5940235"
  },
  {
    "category": "Reserves",
    "placeName": "Greater Big Bend International Dark Sky Reserve",
    "coords": "30.6797399,-104.0247391"
  },
  {
    "category": "Communities",
    "placeName": "Groveland, Florida",
    "coords": "28.5951616,-81.8249223"
  },
  {
    "category": "Parks",
    "placeName": "Gunnison Gorge National Conservation Area",
    "coords": "38.6716392,-107.8824773"
  },
  {
    "category": "Communities",
    "placeName": "Hawthorn Woods, Illinois",
    "coords": "42.241027,-88.0675794"
  },
  {
    "category": "Parks",
    "placeName": "Headlands",
    "coords": "45.7754705,-84.7811722"
  },
  {
    "category": "Parks",
    "placeName": "Hehuan Mountain",
    "coords": "24.1986458,121.2657316"
  },
  {
    "category": "Communities",
    "placeName": "Helper, Utah",
    "coords": "39.6922602,-110.8975733"
  },
  {
    "category": "Communities",
    "placeName": "Homer Glen, Illinois",
    "coords": "41.5962774,-88.0991383"
  },
  {
    "category": "Communities",
    "placeName": "Horseshoe Bay, Texas",
    "coords": "30.5435657,-98.3752751"
  },
  {
    "category": "Parks",
    "placeName": "Hovenweep National Monument",
    "coords": "37.3837623,-109.0726022"
  },
  {
    "category": "Parks",
    "placeName": "Iriomote-Ishigaki National Park",
    "coords": "24.3491732,123.8568106"
  },
  {
    "category": "Sanctuaries",
    "placeName": "Isle of Rum",
    "coords": "56.9979161,-6.4316812"
  },
  {
    "category": "Parks",
    "placeName": "Jackson Lake State Park",
    "coords": "40.3846702,-104.1003727"
  },
  {
    "category": "Parks",
    "placeName": "James River State Park",
    "coords": "37.6237424,-78.8083625"
  },
  {
    "category": "Communities",
    "placeName": "Jelsa",
    "coords": "43.1616673,16.6865015"
  },
  {
    "category": "Communities",
    "placeName": "Jonestown, Texas",
    "coords": "30.4811547,-97.9340715"
  },
  {
    "category": "Parks",
    "placeName": "Jordanelle State Park",
    "coords": "40.6199592,-111.4184577"
  },
  {
    "category": "Parks",
    "placeName": "Joshua Tree National Park",
    "coords": "33.8949056,-116.9816199"
  },
  {
    "category": "Urban Places",
    "placeName": "Joya-La Barreta Ecological Park",
    "coords": "20.8089809,-100.5312323"
  },
  {
    "category": "Communities",
    "placeName": "Julian, California",
    "coords": "33.0783288,-116.6023645"
  },
  {
    "category": "Parks",
    "placeName": "Kartchner Caverns State Park",
    "coords": "31.8365957,-110.3576396"
  },
  {
    "category": "Sanctuaries",
    "placeName": "Katahdin Woods and Waters National Monument",
    "coords": "45.956534,-68.7210472"
  },
  {
    "category": "Parks",
    "placeName": "Kawarau Gibbston Dark Sky Park",
    "coords": "-45.0293717,168.4113966"
  },
  {
    "category": "Reserves",
    "placeName": "Kerry",
    "coords": "52.1453874,-9.8687228"
  },
  {
    "category": "Communities",
    "placeName": "Ketchum, Idaho",
    "coords": "43.6863586,-114.451659"
  },
  {
    "category": "Parks",
    "placeName": "Keweenaw Dark Sky Park",
    "coords": "47.2501967,-88.3684648"
  },
  {
    "category": "Parks",
    "placeName": "Kissimmee Prairie Preserve State Park",
    "coords": "27.5698247,-81.0857231"
  },
  {
    "category": "Parks",
    "placeName": "Kozushima Dark Sky Island",
    "coords": "34.0942085,139.0045908"
  },
  {
    "category": "Parks",
    "placeName": "Lake Fork Earth and Sky Center",
    "coords": "37.9970407,-107.2917727"
  },
  {
    "category": "Communities",
    "placeName": "Lakewood Village, Texas",
    "coords": "33.1383101,-96.9929821"
  },
  {
    "category": "Parks",
    "placeName": "Lauwersmeer National Park",
    "coords": "53.3744176,6.1642691"
  },
  {
    "category": "Sanctuaries",
    "placeName": "Lost Trail National Wildlife Refuge",
    "coords": "48.1763645,-114.8826719"
  },
  {
    "category": "Parks",
    "placeName": "Lyndon B. Johnson National Historical Park",
    "coords": "30.2373905,-98.6292057"
  },
  {
    "category": "Parks",
    "placeName": "Mammoth Cave National Park",
    "coords": "37.1953834,-86.1405956"
  },
  {
    "category": "Parks",
    "placeName": "Mandø",
    "coords": "55.280622,8.5588913"
  },
  {
    "category": "Sanctuaries",
    "placeName": "Massacre Rim Wilderness Study Area",
    "coords": "40.5815254,-119.5885085"
  },
  {
    "category": "Parks",
    "placeName": "Mayland Earth to Sky Park & Bare Dark Sky Observatory",
    "coords": "35.930157,-82.1897855"
  },
  {
    "category": "Parks",
    "placeName": "Mayo Dark Sky Park",
    "coords": "53.0470819,-17.163881"
  },
  {
    "category": "Sanctuaries",
    "placeName": "Medicine Rocks State Park",
    "coords": "46.0443947,-104.4794908"
  },
  {
    "category": "Parks",
    "placeName": "Merritt Reservoir State Recreation Area",
    "coords": "42.5960542,-100.9003806"
  },
  {
    "category": "Parks",
    "placeName": "Mesa Verde National Park",
    "coords": "37.2428606,-108.4654568"
  },
  {
    "category": "Parks",
    "placeName": "Middle Fork River Forest Preserve",
    "coords": "40.3824033,-87.9510488"
  },
  {
    "category": "Parks",
    "placeName": "Milton Reimers Ranch Park",
    "coords": "30.3337022,-98.1223129"
  },
  {
    "category": "Urban Places",
    "placeName": "Minami-Rokuroshi",
    "coords": "35.8805611,136.7587427"
  },
  {
    "category": "Communities",
    "placeName": "Moffat",
    "coords": "55.3329713,-3.475094"
  },
  {
    "category": "Reserves",
    "placeName": "Mont-Mégantic",
    "coords": "45.4551842,-71.1848726"
  },
  {
    "category": "Reserves",
    "placeName": "Moore’s Reserve",
    "coords": "50.9346335,-0.5486008"
  },
  {
    "category": "Communities",
    "placeName": "Møn and Nyord",
    "coords": "54.9799343,12.0566886"
  },
  {
    "category": "Parks",
    "placeName": "Møn and Nyord",
    "coords": "54.9799343,12.0566886"
  },
  {
    "category": "Reserves",
    "placeName": "NamibRand Nature Reserve",
    "coords": "-25,16"
  },
  {
    "category": "Parks",
    "placeName": "Natural Bridge State Park",
    "coords": "37.6286389,-79.5437481"
  },
  {
    "category": "Parks",
    "placeName": "Natural Bridges National Monument",
    "coords": "37.6032007,-110.005769"
  },
  {
    "category": "Parks",
    "placeName": "Naturpark Attersee-Traunsee",
    "coords": "47.8309713,13.5493624"
  },
  {
    "category": "Parks",
    "placeName": "Newport State Park",
    "coords": "45.2410642,-86.9916127"
  },
  {
    "category": "Communities",
    "placeName": "Niue",
    "coords": "-19.0539835,-169.8620488"
  },
  {
    "category": "Sanctuaries",
    "placeName": "Niue",
    "coords": "-19.0540913,-169.903404"
  },
  {
    "category": "Parks",
    "placeName": "North Fork Park",
    "coords": "-19.0539835,-174.2744327"
  },
  {
    "category": "Communities",
    "placeName": "North Ronaldsay Dark Sky Island",
    "coords": "59.3701753,-2.410276"
  },
  {
    "category": "Reserves",
    "placeName": "North York Moors National Park",
    "coords": "54.374848,-0.8827475"
  },
  {
    "category": "Parks",
    "placeName": "Northumberland National Park and Kielder Water & Forest Park",
    "coords": "55.2476158,-2.9881994"
  },
  {
    "category": "Communities",
    "placeName": "Norwood, Colorado",
    "coords": "38.1280746,-108.291276"
  },
  {
    "category": "Communities",
    "placeName": "Nucla and Naturita, Colorado",
    "coords": "38.2660654,-108.548452"
  },
  {
    "category": "Parks",
    "placeName": "Obed Wild and Scenic River",
    "coords": "36.0792147,-84.7653846"
  },
  {
    "category": "Parks",
    "placeName": "OM Dark Sky Park & Observatory",
    "coords": "54.7189848,-6.916839"
  },
  {
    "category": "Parks",
    "placeName": "Oracle State Park",
    "coords": "32.6092999,-110.7336284"
  },
  {
    "category": "Sanctuaries",
    "placeName": "Oregon Outback",
    "coords": "42.1907184,-120.4850777"
  },
  {
    "category": "Parks",
    "placeName": "Oxford Forest Conservation Area, New Zealand",
    "coords": "-43.270845,172.0749878"
  },
  {
    "category": "Parks",
    "placeName": "Øvre Pasvik National Park",
    "coords": "69.1146157,29.0105591"
  },
  {
    "category": "Urban Places",
    "placeName": "Palm Beach Headland",
    "coords": "-33.6067164,151.3124831"
  },
  {
    "category": "Urban Places",
    "placeName": "Palos Preserves",
    "coords": "41.7294575,-87.8747244"
  },
  {
    "category": "Urban Places",
    "placeName": "Parc du Mont-Bellevue",
    "coords": "45.384407,-71.908385"
  },
  {
    "category": "Parks",
    "placeName": "Parc national du Mont-Tremblant",
    "coords": "46.41494,-74.6062276"
  },
  {
    "category": "Communities",
    "placeName": "Pellworm Star Island",
    "coords": "54.5087615,8.1503265"
  },
  {
    "category": "Parks",
    "placeName": "Petrified Forest National Park",
    "coords": "34.9830024,-110.4378394"
  },
  {
    "category": "Parks",
    "placeName": "Petrova Gora-Biljeg",
    "coords": "45.2416587,15.7651897"
  },
  {
    "category": "Reserves",
    "placeName": "Pic du Midi",
    "coords": "42.9280144,0.0199274"
  },
  {
    "category": "Parks",
    "placeName": "Pickett CCC Memorial State Park & Pogue Creek Canyon State Natural Area",
    "coords": "36.5521734,-84.7973308"
  },
  {
    "category": "Parks",
    "placeName": "Pipe Spring National Monument",
    "coords": "36.8625334,-112.7374633"
  },
  {
    "category": "Parks",
    "placeName": "Pisgah Astronomical Research Institute",
    "coords": "35.1989792,-82.8724423"
  },
  {
    "category": "Sanctuaries",
    "placeName": "Pitcairn Islands",
    "coords": "-25.0696505,-130.10546"
  },
  {
    "category": "Communities",
    "placeName": "Presteigne & Norton Dark Sky Community, Wales",
    "coords": "52.2729243,-3.0794272"
  },
  {
    "category": "Parks",
    "placeName": "Prineville Reservoir State Park",
    "coords": "44.1320159,-120.7384259"
  },
  {
    "category": "Parks",
    "placeName": "Quetico Provincial Park",
    "coords": "48.6749646,-91.1362926"
  },
  {
    "category": "Sanctuaries",
    "placeName": "Rainbow Bridge National Monument",
    "coords": "37.0774593,-110.9745221"
  },
  {
    "category": "Parks",
    "placeName": "Ramon Crater Nature Reserve",
    "coords": "30.5932416,34.1743055"
  },
  {
    "category": "Parks",
    "placeName": "Rappahannock County Park",
    "coords": "38.7104136,-78.1525775"
  },
  {
    "category": "Reserves",
    "placeName": "Regional Natural Park of Millevaches in Limousin",
    "coords": "45.6531807,2.0490896"
  },
  {
    "category": "Reserves",
    "placeName": "Regional Natural Park of Vercors",
    "coords": "45.1364962,5.5491892"
  },
  {
    "category": "Reserves",
    "placeName": "Rhön",
    "coords": "50.6734096,10.1101126"
  },
  {
    "category": "Communities",
    "placeName": "Ridgway, Colorado",
    "coords": "38.1584525,-107.752251"
  },
  {
    "category": "Reserves",
    "placeName": "River Murray",
    "coords": "-35.4092603,143.762027"
  },
  {
    "category": "Parks",
    "placeName": "Rockport State Park",
    "coords": "40.7706546,-111.4050916"
  },
  {
    "category": "Urban Places",
    "placeName": "Saguaro National Park",
    "coords": "32.1802357,-110.7362407"
  },
  {
    "category": "Parks",
    "placeName": "Salinas Pueblo Missions National Monument",
    "coords": "34.258917,-106.0940091"
  },
  {
    "category": "Communities",
    "placeName": "Sark, Channel Islands",
    "coords": "49.4254033,-2.4511524"
  },
  {
    "category": "Communities",
    "placeName": "Sedona, Arizona",
    "coords": "34.8543784,-111.7951384"
  },
  {
    "category": "Urban Places",
    "placeName": "Shield Ranch Barton Creek",
    "coords": "30.2959878,-98.0076899"
  },
  {
    "category": "Parks",
    "placeName": "Sinks Canyon State Park",
    "coords": "42.7575527,-108.8458908"
  },
  {
    "category": "Parks",
    "placeName": "Sky Meadows State Park",
    "coords": "38.9896007,-77.9813103"
  },
  {
    "category": "Communities",
    "placeName": "Sopotnia Wielka",
    "coords": "49.5928042,19.1761217"
  },
  {
    "category": "Parks",
    "placeName": "South Llano River State Park",
    "coords": "30.4457856,-99.8042166"
  },
  {
    "category": "Communities",
    "placeName": "Spiekeroog Star Island",
    "coords": "53.7655605,7.4110089"
  },
  {
    "category": "Communities",
    "placeName": "Springdale, Utah",
    "coords": "37.1950878,-112.9978843"
  },
  {
    "category": "Urban Places",
    "placeName": "Stacy Park",
    "coords": "38.669129,-90.390786"
  },
  {
    "category": "Parks",
    "placeName": "Staunton River State Park",
    "coords": "36.6981267,-78.6768109"
  },
  {
    "category": "Parks",
    "placeName": "Steinaker State Park",
    "coords": "40.5053773,-109.5388644"
  },
  {
    "category": "Parks",
    "placeName": "Stephen C. Foster State Park",
    "coords": "30.8265888,-82.3722013"
  },
  {
    "category": "Sanctuaries",
    "placeName": "Stewart Island / Rakiura",
    "coords": "-46.9790993,166.5193658"
  },
  {
    "category": "Communities",
    "placeName": "The City of Moab",
    "coords": "38.5743979,-109.5514186"
  },
  {
    "category": "Sanctuaries",
    "placeName": "The Jump-Up",
    "coords": "-22.4791197,143.1723904"
  },
  {
    "category": "Communities",
    "placeName": "Thunder Mountain Pootsee Nightsky",
    "coords": "36.9156979,-112.664592"
  },
  {
    "category": "Urban Places",
    "placeName": "Timpanogos Cave National Monument",
    "coords": "40.4439287,-111.7167357"
  },
  {
    "category": "Parks",
    "placeName": "Tomintoul and Glenlivet – Cairngorms",
    "coords": "57.3390991,-3.3471816"
  },
  {
    "category": "Parks",
    "placeName": "Tonto National Monument",
    "coords": "33.6484286,-111.1135633"
  },
  {
    "category": "Parks",
    "placeName": "Top of the Pines",
    "coords": "38.1114734,-107.8045618"
  },
  {
    "category": "Communities",
    "placeName": "Torrey, Utah",
    "coords": "38.3033617,-111.4407395"
  },
  {
    "category": "Communities",
    "placeName": "Town of Castle Valley, Utah",
    "coords": "38.6362025,-109.3995881"
  },
  {
    "category": "Communities",
    "placeName": "Town of Paonia",
    "coords": "38.8700041,-107.5925749"
  },
  {
    "category": "Communities",
    "placeName": "Tubac, Arizona",
    "coords": "31.6295734,-111.0977355"
  },
  {
    "category": "Parks",
    "placeName": "Tumacácori National Historical Park",
    "coords": "31.567784,-111.0613496"
  },
  {
    "category": "Parks",
    "placeName": "UBarU Camp and Retreat Center",
    "coords": "30.1884898,-99.2744282"
  },
  {
    "category": "Urban Places",
    "placeName": "Valle de Oro National Wildlife Refuge",
    "coords": "34.9798042,-106.6822401"
  },
  {
    "category": "Parks",
    "placeName": "Valles Caldera National Preserve",
    "coords": "35.8321046,-106.4973057"
  },
  {
    "category": "Parks",
    "placeName": "Voyageurs National Park",
    "coords": "48.4928627,-94.1036621"
  },
  {
    "category": "Parks",
    "placeName": "Vrani kamen",
    "coords": "45.600506,17.3786965"
  },
  {
    "category": "Parks",
    "placeName": "Wai-Iti",
    "coords": "-41.4126409,172.9692954"
  },
  {
    "category": "Reserves",
    "placeName": "Wairarapa Dark Sky Reserve",
    "coords": "-40.5576432,175.9351205"
  },
  {
    "category": "Parks",
    "placeName": "Warrumbungle Dark Sky Park",
    "coords": "-31.281086,149.013454"
  },
  {
    "category": "Parks",
    "placeName": "Waterton-Glacier International Peace Park",
    "coords": "49.0359348,-113.9779828"
  },
  {
    "category": "Parks",
    "placeName": "Watoga State Park",
    "coords": "38.1165056,-80.1273891"
  },
  {
    "category": "Parks",
    "placeName": "West Penwith",
    "coords": "50.117269,-5.7999527"
  },
  {
    "category": "Communities",
    "placeName": "Westcliffe and Silver Cliff, Colorado",
    "coords": "38.135858,-105.458349"
  },
  {
    "category": "Reserves",
    "placeName": "Westhavelland",
    "coords": "52.502373,12.330392"
  },
  {
    "category": "Communities",
    "placeName": "Wimberley Valley, Texas",
    "coords": "30.025412,-98.1117225"
  },
  {
    "category": "Parks",
    "placeName": "Winklmoosalm",
    "coords": "47.6571908,12.5431781"
  },
  {
    "category": "Communities",
    "placeName": "Xichong, Shenzen",
    "coords": "22.476688,114.529645"
  },
  {
    "category": "Parks",
    "placeName": "Yeongyang Firefly Eco Park",
    "coords": "36.8299861,129.2597243"
  },
  {
    "category": "Sanctuaries",
    "placeName": "Ynys Enlli – Bardsey Island",
    "coords": "52.7568721,-4.8015375"
  },
  {
    "category": "Reserves",
    "placeName": "Yorkshire Dales National Park",
    "coords": "54.2631864,-2.2007922"
  },
  {
    "category": "Parks",
    "placeName": "Zion National Park",
    "coords": "37.3202632,-113.7025414"
  },
  {
    "category": "Parks",
    "placeName": "Zselic National Landscape Protection Area",
    "coords": "46.2583236,17.7653227"
  }
]